<?xml version="1.0" encoding="UTF-8"?><kml xmlns="http://www.opengis.net/kml/2.2"><Document><Style id="t"><LineStyle><color>ff00ff00</color><width>4</width></LineStyle></Style><Placemark><styleUrl>#t</styleUrl><LineString><tessellate>1</tessellate><coordinates>34.84118019,32.13897619,-4443.9 34.85718250,32.13441152,1725.1 35.03439014,32.11785740,1685.5 35.21159778,32.10158145,1310.4 35.21173162,32.10158145,1309.1 35.21202263,32.10158145,1313.0 35.21226260,32.10158145,1323.6 35.21226260,32.10258309,1319.3 35.21226260,32.10261545,1334.2 35.21240032,32.10307828,1322.1 35.21253805,32.10354110,1330.8 35.21277801,32.10370730,1346.2</coordinates></LineString></Placemark></Document></kml>