<?xml version="1.0" encoding="UTF-8"?><kml xmlns="http://www.opengis.net/kml/2.2"><Document><name>Galileo Track</name>
    <Style id="t"><LineStyle><color>ff00ff00</color><width>4</width></LineStyle></Style>
    <Placemark><name>Route</name><styleUrl>#t</styleUrl><LineString><tessellate>1</tessellate><coordinates>34.81453638,32.16901918,298.347 34.81452775,32.16902201,299.667 34.81452127,32.16902413,300.657 34.81451524,32.16902061,300.988 34.81450392,32.16901836,300.790 34.81447765,32.16902188,299.683 34.81443263,32.16903181,299.114 34.81437674,32.16903783,298.897 34.81428694,32.16903448,299.496 34.81417724,32.16903073,299.328 34.81404619,32.16903057,297.921 34.81389468,32.16903413,295.750 34.81366137,32.16902989,293.397 34.81341558,32.16901968,291.710 34.81316994,32.16901003,290.231 34.81292219,32.16898779,289.126 34.81269270,32.16895396,288.801 34.81247214,32.16890762,289.449 34.81225487,32.16885475,288.777 34.81206556,32.16879998,287.405 34.81182514,32.16866590,287.511 34.81160003,32.16852106,287.967 34.81137689,32.16836190,288.382 34.81122987,32.16819379,288.715 34.81107679,32.16802575,289.124 34.81092344,32.16786113,289.730 34.81077187,32.16770692,290.675 34.81060611,32.16756301,291.067 34.81044480,32.16743216,291.561 34.81028066,32.16731132,293.282 34.81009158,32.16721277,294.422 34.80996934,32.16719207,294.657 34.80982535,32.16718958,293.955 34.80967631,32.16721126,293.635 34.80950828,32.16725838,294.019 34.80932984,32.16732146,293.859 34.80913261,32.16739323,294.128 34.80892346,32.16747204,294.442 34.80870690,32.16754905,296.272 34.80848135,32.16762569,300.082 34.80826176,32.16771584,304.441 34.80805721,32.16779908,312.044 34.80784695,32.16788261,324.423 34.80768359,32.16795050,338.834 34.80754499,32.16800525,353.591 34.80752915,32.16802043,373.354 34.80762806,32.16800145,395.439 34.80778383,32.16794913,413.486 34.80796463,32.16788569,429.693 34.80817358,32.16781394,443.652 34.80839643,32.16773602,455.471 34.80862298,32.16763754,465.310 34.80887121,32.16753014,471.052 34.80913624,32.16741877,470.624 34.80937873,32.16731076,468.684 34.80961488,32.16716420,464.987 34.80975394,32.16703604,455.050 34.80977468,32.16688477,444.437 34.80960332,32.16662216,440.246 34.80940792,32.16633219,437.532 34.80919734,32.16603426,435.939 34.80898177,32.16573192,434.258 34.80876117,32.16543313,433.108 34.80853360,32.16513329,432.464 34.80829799,32.16483315,432.598 34.80806501,32.16453183,432.967 34.80783630,32.16426806,435.272 34.80760939,32.16401598,438.122 34.80741232,32.16380585,436.696 34.80737015,32.16373052,431.596 34.80734430,32.16368703,425.017 34.80732583,32.16365756,418.769 34.80730983,32.16363350,412.567 34.80729802,32.16361432,406.509 34.80729277,32.16360287,402.426 34.80729356,32.16359729,401.213 34.80729482,32.16359565,400.199 34.80729781,32.16359512,398.987 34.80730245,32.16359414,398.246 34.80730980,32.16359840,399.937 34.80731832,32.16360543,402.653 34.80732782,32.16361381,406.859 34.80733857,32.16361973,410.416 34.80734808,32.16362810,414.622 34.80735588,32.16363598,420.429 34.80735939,32.16363949,424.672 34.80735787,32.16363968,426.598 34.80735284,32.16363393,427.382 34.80735132,32.16362523,428.688 34.80734791,32.16361512,430.242 34.80733348,32.16358251,431.991 34.80729327,32.16350106,434.911 34.80721649,32.16336158,441.067 34.80713738,32.16318708,445.432 34.80700784,32.16292194,451.282 34.80686845,32.16263372,455.737 34.80669759,32.16226565,458.788 34.80651167,32.16187611,462.638 34.80631296,32.16147021,468.575 34.80609441,32.16104497,474.934 34.80585984,32.16057594,479.308 34.80557743,32.15996024,474.705 34.80528243,32.15936399,472.729 34.80498644,32.15879922,471.647 34.80468795,32.15826861,473.194 34.80444113,32.15781739,471.994 34.80420587,32.15738467,470.232 34.80400197,32.15703173,469.886 34.80381384,32.15670010,468.772 34.80364131,32.15639294,466.824 34.80348320,32.15610868,463.827 34.80334436,32.15587069,461.653 34.80326318,32.15580134,468.486 34.80321893,32.15575944,472.012 34.80321488,32.15574385,470.860 34.80321198,32.15573183,469.336 34.80320828,32.15572974,468.095 34.80320457,32.15573106,467.091 34.80320559,32.15572599,464.760 34.80320717,32.15572074,462.171 34.80320945,32.15571329,459.471 34.80321364,32.15570348,456.754 34.80322021,32.15568890,454.735 34.80323164,32.15567371,452.691 34.80324758,32.15564966,449.605 34.80326197,32.15561156,446.193 34.80331703,32.15555893,442.408 34.80341112,32.15549092,438.399 34.80354343,32.15541032,433.950 34.80370932,32.15532191,430.263 34.80390167,32.15522351,426.911 34.80412084,32.15511758,424.644 34.80436681,32.15500591,423.587 34.80464011,32.15488493,423.566 34.80493269,32.15475279,422.338 34.80522876,32.15461738,421.077 34.80554121,32.15448200,421.088 34.80585554,32.15434376,423.566 34.80614018,32.15420668,426.349 34.80638547,32.15408297,429.806 34.80658835,32.15394068,432.201 34.80675067,32.15377334,434.079 34.80686497,32.15357548,434.925 34.80693098,32.15334719,434.726 34.80694431,32.15309382,433.763 34.80691320,32.15281481,433.844 34.80685293,32.15251062,434.334 34.80675354,32.15218262,434.485 34.80659258,32.15183380,432.764 34.80640479,32.15145911,431.509 34.80619983,32.15104635,430.353 34.80596386,32.15058689,430.915 34.80571870,32.15013332,433.470 34.80549168,32.14968024,433.846 34.80524899,32.14916524,433.672 34.80502617,32.14866157,432.671 34.80482319,32.14815656,429.153 34.80462738,32.14766327,426.506 34.80442816,32.14718728,427.356 34.80425114,32.14671449,427.086 34.80408130,32.14625301,426.731 34.80393400,32.14579274,423.974 34.80379826,32.14538862,423.515 34.80378152,32.14474396,417.712 34.80380051,32.14412657,415.849 34.80387927,32.14359779,415.463 34.80398978,32.14308093,417.175 34.80413884,32.14260474,422.407 34.80434322,32.14217547,424.101 34.80461321,32.14177008,421.688 34.80492056,32.14138507,421.871 34.80528566,32.14101618,422.675 34.80577424,32.14067902,426.105 34.80641420,32.14034625,426.673 34.80708257,32.14026043,431.042 34.80784240,32.14016096,433.787 34.80870372,32.14004883,435.755 34.80965902,32.13992745,436.602 34.81070150,32.13978078,436.597 34.81175318,32.13962485,437.202 34.81281390,32.13946366,438.738 34.81388689,32.13930927,439.129 34.81496356,32.13915803,439.080 34.81596434,32.13901000,439.087 34.81688906,32.13888968,437.575 34.81774014,32.13878667,436.197 34.81851838,32.13869336,436.874 34.81922086,32.13862077,433.530 34.81993009,32.13854729,431.476 34.82064609,32.13847293,430.712 34.82195378,32.13812611,433.218 34.82385357,32.13752026,436.618 34.82574779,32.13690213,439.368 34.82763747,32.13627388,440.129 34.82952113,32.13562994,438.719 34.83139740,32.13495829,439.202 34.83326751,32.13427428,439.272 34.83513064,32.13358552,437.006 34.83698972,32.13288099,438.482 34.83875304,32.13218101,439.768 34.84044238,32.13149211,440.845 34.84153376,32.13104054,441.965 34.84203642,32.13082759,441.741 34.84254736,32.13061198,441.731 34.84306554,32.13039235,443.328 34.84359097,32.13016870,446.531 34.84412513,32.12994153,449.757 34.84467759,32.12970758,451.903 34.84524836,32.12946687,452.972 34.84583219,32.12922016,453.048 34.84643829,32.12896876,450.751 34.84704489,32.12870614,446.097 34.84765006,32.12844843,441.145 34.84824459,32.12819434,437.278 34.84883049,32.12794333,434.076 34.84940776,32.12769539,431.539 34.84998082,32.12745016,428.734 34.85054967,32.12720763,425.660 34.85113369,32.12695832,422.720 34.85173287,32.12670222,419.913 34.85235245,32.12643855,417.152 34.85299241,32.12616732,414.439 34.85365277,32.12588852,411.772 34.85434848,32.12559607,407.056 34.85507954,32.12528995,400.290 34.85582696,32.12496922,394.506 34.85660161,32.12464653,389.559 34.85735962,32.12433137,385.207 34.85811104,32.12400839,380.678 34.85883037,32.12370058,378.934 34.85951475,32.12340327,378.570 34.86016667,32.12311808,379.300 34.86078426,32.12284904,382.980 34.86136849,32.12259871,385.994 34.86192363,32.12236888,391.914 34.86244538,32.12215958,393.470 34.86295198,32.12197411,394.724 34.86343646,32.12179972,396.062 34.86393432,32.12163096,395.519 34.86444160,32.12147875,397.070 34.86500048,32.12132364,398.129 34.86561383,32.12116877,399.994 34.86626669,32.12101037,401.139 34.86691893,32.12085179,400.383 34.86756955,32.12069047,401.345 34.86821432,32.12052461,400.451 34.86885750,32.12035421,404.971 34.86949788,32.12017746,408.230 34.87013154,32.11999445,409.986 34.87075885,32.11980166,413.965 34.87137525,32.11960477,415.057 34.87193712,32.11941236,414.966 34.87244447,32.11922598,413.802 34.87290975,32.11904775,413.377 34.87337917,32.11887123,413.157 34.87385273,32.11869642,413.143 34.87432697,32.11852695,409.612 34.87480826,32.11836133,406.337 34.87529811,32.11820828,403.275 34.87579519,32.11806868,400.751 34.87630217,32.11794406,397.887 34.87681848,32.11783762,395.802 34.87738857,32.11775519,395.769 34.87796441,32.11769671,395.561 34.87854336,32.11766616,395.037 34.87914327,32.11767136,394.343 34.87976413,32.11770950,393.284 34.88038626,32.11777352,393.833 34.88099960,32.11787320,395.778 34.88160288,32.11799275,397.459 34.88219734,32.11813925,397.590 34.88278526,32.11830915,395.775 34.88336274,32.11850276,397.432 34.88388382,32.11871567,397.644 34.88440064,32.11894217,398.241 34.88491614,32.11917563,398.233 34.88540876,32.11940632,396.702 34.88587746,32.11964155,395.330 34.88638660,32.11989697,396.011 34.88690381,32.12014054,394.580 34.88742917,32.12038215,393.161 34.88796279,32.12061385,392.716 34.88850328,32.12083750,393.939 34.88905357,32.12104835,392.198 34.88966234,32.12123480,389.914 34.89032545,32.12140264,387.484 34.89104262,32.12155444,386.036 34.89181335,32.12168842,386.006 34.89263870,32.12180010,385.907 34.89343181,32.12187753,385.543 34.89423023,32.12194093,384.058 34.89503398,32.12197522,383.997 34.89584090,32.12199697,382.395 34.89664981,32.12199674,381.927 34.89746005,32.12197933,378.268 34.89833091,32.12193493,378.237 34.89915229,32.12188313,378.818 34.89992850,32.12182095,376.263 34.90070367,32.12174542,375.656 34.90142982,32.12166585,374.042 34.90214914,32.12157898,371.597 34.90286046,32.12148589,371.942 34.90356473,32.12140133,371.881 34.90431248,32.12130262,372.154 34.90505746,32.12121012,370.320 34.90579929,32.12110857,373.015 34.90642862,32.12102506,370.336 34.90721187,32.12091948,367.812 34.90799147,32.12081491,369.293 34.90872424,32.12071308,369.995 34.90945816,32.12060469,372.871 34.91019546,32.12048959,374.562 34.91093354,32.12036824,374.973 34.91167190,32.12024118,374.230 34.91240972,32.12009494,376.840 34.91315255,32.11993186,377.349 34.91389476,32.11976919,377.896 34.91463391,32.11959555,381.757 34.91521798,32.11943515,383.364 34.91579847,32.11926786,385.754 34.91637502,32.11909667,385.287 34.91695252,32.11892039,382.962 34.91752392,32.11874165,382.474 34.91809420,32.11856637,383.802 34.91866299,32.11838815,384.707 34.91918350,32.11822669,385.853 34.91970131,32.11807530,386.894 34.92022084,32.11791935,389.117 34.92074684,32.11776927,390.040 34.92126793,32.11762204,388.951 34.92179305,32.11747570,385.816 34.92232059,32.11733534,384.246 34.92285114,32.11720018,383.546 34.92338679,32.11707462,384.024 34.92393130,32.11695472,383.757 34.92448154,32.11684685,382.789 34.92503596,32.11675057,379.729 34.92559088,32.11665936,380.148 34.92614852,32.11658103,378.310 34.92670754,32.11651004,376.337 34.92727498,32.11644573,377.994 34.92784371,32.11639015,380.185 34.92841470,32.11633919,382.829 34.92898249,32.11629485,385.625 34.92955325,32.11625318,387.802 34.93011936,32.11622061,388.198 34.93069735,32.11618818,390.068 34.93128798,32.11615618,391.851 34.93189125,32.11612461,393.547 34.93250533,32.11609524,395.153 34.93313021,32.11606807,396.667 34.93376588,32.11604311,398.090 34.93452889,32.11600344,399.465 34.93541921,32.11594907,400.794 34.93643686,32.11587998,402.077 34.93758183,32.11579618,403.314 34.93872372,32.11569587,401.684 34.93984510,32.11558722,399.263 34.94094492,32.11546577,398.546 34.94202354,32.11533293,398.564 34.94308277,32.11518999,397.243 34.94412154,32.11503599,395.671 34.94513712,32.11487312,395.000 34.94601075,32.11471439,394.208 34.94674543,32.11456302,393.146 34.94733509,32.11441958,392.929 34.94778556,32.11428175,390.647 34.94822477,32.11414687,391.277 34.94865876,32.11401147,394.430 34.94908753,32.11388235,395.400 34.94951248,32.11375130,394.743 34.94993335,32.11362109,394.428 34.95035426,32.11348746,394.201 34.95077644,32.11335449,393.691 34.95120360,32.11322224,391.558 34.95163219,32.11308713,390.603 34.95206505,32.11295197,388.401 34.95249573,32.11281641,389.447 34.95293377,32.11267660,390.802 34.95337428,32.11253326,390.979 34.95381832,32.11238405,392.190 34.95426216,32.11223436,390.671 34.95470859,32.11207583,390.420 34.95515291,32.11190951,390.183 34.95559534,32.11173001,389.971 34.95603601,32.11153759,389.982 34.95647285,32.11133234,389.356 34.95691465,32.11111473,390.428 34.95735564,32.11088400,388.683 34.95779449,32.11064175,387.714 34.95823284,32.11038879,386.110 34.95866836,32.11012909,383.754 34.95910937,32.10985727,384.978 34.95954849,32.10957875,385.926 34.95998784,32.10929611,386.514 34.96047167,32.10898613,387.280 34.96095436,32.10867873,390.571 34.96143998,32.10837114,392.605 34.96192275,32.10806185,393.037 34.96240393,32.10775380,393.400 34.96288613,32.10744647,393.857 34.96352530,32.10704002,397.223 34.96416818,32.10663152,399.879 34.96480839,32.10622777,401.667 34.96545085,32.10582590,402.559 34.96609549,32.10543006,404.883 34.96670604,32.10506489,405.683 34.96731622,32.10470328,406.386 34.96793118,32.10435223,408.296 34.96855116,32.10400942,410.735 34.96918190,32.10367666,414.698 34.96981722,32.10335362,418.247 34.97029858,32.10314731,417.559 34.97078158,32.10295666,416.372 34.97127007,32.10278495,415.544 34.97176567,32.10262104,417.068 34.97227308,32.10247661,416.493 34.97278494,32.10234278,416.933 34.97330889,32.10221941,417.755 34.97394381,32.10211038,417.620 34.97468967,32.10201274,416.324 34.97544561,32.10192849,415.181 34.97620598,32.10186432,413.233 34.97697363,32.10180272,413.150 34.97774990,32.10175064,413.793 34.97852635,32.10170416,414.598 34.97930552,32.10167332,413.924 34.98007616,32.10164517,414.163 34.98083941,32.10162454,414.007 34.98164704,32.10161065,412.866 34.98239357,32.10159633,412.813 34.98312958,32.10159701,412.097 34.98385981,32.10159577,412.348 34.98458601,32.10159907,414.177 34.98530448,32.10162605,415.501 34.98601388,32.10166978,417.460 34.98671880,32.10173567,419.123 34.98741598,32.10182130,420.505 34.98810828,32.10193393,422.245 34.98880035,32.10207386,422.876 34.98943883,32.10224472,424.676 34.99002895,32.10244220,424.767 34.99051691,32.10265453,427.149 34.99113704,32.10295882,427.746 34.99189222,32.10334309,426.917 34.99265109,32.10371976,427.665 34.99341636,32.10409227,427.248 34.99418802,32.10445583,426.302 34.99496901,32.10480026,426.025 34.99576035,32.10512658,425.381 34.99655758,32.10543317,425.687 34.99736496,32.10571811,424.228 34.99817728,32.10598506,423.835 34.99907608,32.10623965,423.283 34.99992254,32.10641836,424.105 35.00071666,32.10652120,426.300 35.00159408,32.10662665,427.538 35.00255211,32.10673129,430.563 35.00359073,32.10683510,435.376 35.00470610,32.10695179,440.412 35.00590050,32.10705960,445.455 35.00717323,32.10716162,450.476 35.00852429,32.10725783,455.475 35.01094975,32.10711079,463.593 35.01362178,32.10675390,472.685 35.01620817,32.10635977,479.667 35.01870923,32.10592994,485.436 35.02112460,32.10546333,490.653 35.02346168,32.10495846,496.774 35.02570705,32.10441938,501.397 35.02786027,32.10384835,503.627 35.02993341,32.10325322,508.141 35.03224553,32.10257449,514.228 35.03446784,32.10189036,521.271 35.03561417,32.10144900,524.232 35.03643126,32.10120826,524.854 35.03724937,32.10099342,528.860 35.03806922,32.10081231,533.173 35.03888797,32.10066742,538.116 35.03983002,32.10061066,541.608 35.04080080,32.10059984,546.057 35.04180075,32.10063272,552.358 35.04279738,32.10070339,557.534 35.04347534,32.10087555,560.069 35.04416383,32.10105797,561.972 35.04485780,32.10123054,565.620 35.04576045,32.10139456,570.777 35.04666726,32.10155759,573.845 35.04763031,32.10168845,577.882 35.04859955,32.10179698,581.070 35.04944215,32.10183233,584.910 35.05069334,32.10174474,586.796 35.05192524,32.10161946,588.216 35.05315832,32.10147607,585.848 35.05440250,32.10130014,586.480 35.05565589,32.10110606,587.849 35.05690686,32.10090622,587.901 35.05795730,32.10070027,586.155 35.05901453,32.10047984,585.247 35.06002348,32.10026691,584.764 35.06123727,32.10000708,585.531 35.06244790,32.09974739,586.370 35.06323467,32.09957467,588.990 35.06401970,32.09940408,591.423 35.06480102,32.09922372,596.649 35.06556908,32.09904589,600.443 35.06632007,32.09886792,603.040 35.06706119,32.09869074,606.681 35.06779067,32.09851289,611.687 35.06871846,32.09828448,618.526 35.06982532,32.09799604,623.581 35.07072225,32.09775066,627.361 35.07162113,32.09750205,631.208 35.07251282,32.09725470,634.254 35.07340253,32.09700323,638.505 35.07433928,32.09674403,642.039 35.07527238,32.09648319,645.067 35.07621015,32.09622124,649.050 35.07715489,32.09595541,652.324 35.07810324,32.09568878,655.217 35.07884459,32.09547103,656.999 35.07939755,32.09531375,658.147 35.08020616,32.09508754,662.206 35.08101658,32.09486188,665.462 35.08183006,32.09463394,670.022 35.08265078,32.09440761,673.308 35.08342978,32.09418779,677.357 35.08426074,32.09395833,682.659 35.08509500,32.09372922,685.675 35.08593302,32.09350153,690.432 35.08677285,32.09327993,694.026 35.08761423,32.09306744,695.064 35.08845974,32.09286476,696.417 35.08912327,32.09272761,697.265 35.08978877,32.09260293,697.161 35.09052078,32.09248921,696.660 35.09125327,32.09239138,696.171 35.09205175,32.09230562,696.059 35.09280702,32.09224511,694.479 35.09356870,32.09220122,694.074 35.09438836,32.09217246,692.330 35.09521761,32.09215907,690.823 35.09605771,32.09214928,690.989 35.09701690,32.09215033,691.363 35.09802639,32.09217347,688.547 35.09904038,32.09219910,686.780 35.09999567,32.09222581,684.981 35.10095389,32.09225684,682.542 35.10184423,32.09229969,679.571 35.10273517,32.09234826,675.866 35.10362170,32.09240138,673.168 35.10444925,32.09245856,670.930 35.10531958,32.09253293,669.202 35.10618011,32.09262698,666.934 35.10692129,32.09272806,666.329 35.10754311,32.09283861,667.556 35.10815363,32.09297207,667.743 35.10875747,32.09311980,667.741 35.10934738,32.09328767,669.849 35.10993711,32.09346943,671.419 35.11051757,32.09366873,673.727 35.11108961,32.09388023,675.951 35.11165134,32.09410499,678.882 35.11216046,32.09433078,680.468 35.11268333,32.09457275,683.109 35.11322126,32.09483342,685.863 35.11375589,32.09510682,686.822 35.11429096,32.09537853,688.678 35.11486440,32.09567969,691.111 35.11543942,32.09597862,692.728 35.11601228,32.09627872,694.671 35.11658510,32.09657305,697.095 35.11715486,32.09687098,698.967 35.11772343,32.09717142,699.495 35.11828442,32.09746825,701.671 35.11882281,32.09775558,702.711 35.11934095,32.09803128,702.661 35.11985880,32.09829950,702.965 35.12037271,32.09856881,703.935 35.12084013,32.09881905,705.205 35.12130668,32.09906842,706.135 35.12177100,32.09931314,708.258 35.12223462,32.09956013,710.247 35.12270452,32.09981025,710.273 35.12317722,32.10006531,710.349 35.12364600,32.10032365,711.581 35.12411624,32.10057998,713.106 35.12458524,32.10084170,713.549 35.12504417,32.10111146,714.962 35.12550139,32.10138051,715.873 35.12595471,32.10164849,716.022 35.12640522,32.10191812,716.080 35.12685142,32.10219358,714.919 35.12729161,32.10247354,714.114 35.12772117,32.10275045,716.051 35.12814954,32.10302295,717.674 35.12858345,32.10329271,717.875 35.12901455,32.10356636,718.200 35.12945155,32.10383207,719.213 35.12989572,32.10409163,720.245 35.13034584,32.10434735,721.210 35.13080629,32.10460205,721.784 35.13126888,32.10485500,723.206 35.13174213,32.10510147,724.557 35.13222437,32.10534300,724.653 35.13271405,32.10557887,724.824 35.13320743,32.10581265,725.124 35.13370180,32.10604488,726.003 35.13419942,32.10627380,726.336 35.13469230,32.10650016,727.647 35.13518734,32.10672443,728.301 35.13567629,32.10694613,728.828 35.13615502,32.10716724,730.574 35.13663500,32.10738110,729.880 35.13710360,32.10758996,730.348 35.13755999,32.10778759,732.426 35.13800646,32.10797787,734.417 35.13844339,32.10815249,737.849 35.13887535,32.10831217,739.870 35.13929849,32.10845439,741.444 35.13969774,32.10858577,743.226 35.14006219,32.10870362,744.250 35.14039055,32.10880505,745.064 35.14069000,32.10888398,745.207 35.14094962,32.10894803,746.973 35.14118595,32.10899987,747.796 35.14140881,32.10904085,748.018 35.14161819,32.10907116,747.653 35.14181084,32.10910098,745.130 35.14198494,32.10912242,744.115 35.14215911,32.10914513,743.764 35.14234584,32.10915455,744.009 35.14265755,32.10915515,745.677 35.14310133,32.10914995,747.858 35.14367190,32.10914265,750.396 35.14437504,32.10912869,753.599 35.14519830,32.10910995,757.497 35.14613523,32.10908641,761.661 35.14718582,32.10905995,766.221 35.14826121,32.10902824,771.587 35.14936808,32.10900045,776.529 35.15049036,32.10896680,781.687 35.15163029,32.10894087,785.690 35.15268075,32.10892167,788.878 35.15365555,32.10890485,792.449 35.15453703,32.10889523,795.746 35.15533734,32.10889016,798.754 35.15605330,32.10889129,801.056 35.15668560,32.10889793,803.263 35.15723732,32.10891795,804.332 35.15788556,32.10893919,807.569 35.15861633,32.10895983,812.284 35.15943162,32.10897534,817.641 35.16032608,32.10898765,823.356 35.16120032,32.10900735,827.387 35.16201683,32.10902620,830.331 35.16281108,32.10903521,833.955 35.16356273,32.10903089,837.200 35.16427440,32.10900890,840.379 35.16494541,32.10897203,843.029 35.16556953,32.10891688,846.253 35.16605434,32.10884756,846.681 35.16641122,32.10876693,845.533 35.16663596,32.10867966,843.313 35.16672936,32.10857716,840.319 35.16678818,32.10844037,839.144 35.16683115,32.10826071,837.384 35.16683839,32.10805890,835.825 35.16683022,32.10784533,833.662 35.16680445,32.10762312,831.591 35.16675851,32.10738968,829.766 35.16670399,32.10713510,826.931 35.16663608,32.10686332,825.032 35.16655102,32.10657862,823.529 35.16645241,32.10628046,822.603 35.16634699,32.10597776,821.743 35.16623988,32.10567193,821.164 35.16614138,32.10538845,820.877 35.16604695,32.10510757,820.155 35.16595385,32.10482823,819.420 35.16586123,32.10455405,818.693 35.16577480,32.10428586,817.482 35.16569107,32.10403712,816.702 35.16562073,32.10380864,815.198 35.16556107,32.10359655,813.033 35.16646429,32.10334984,821.031 35.16739423,32.10313279,827.992 35.16848452,32.10294953,833.494 35.17030468,32.10283511,841.297 35.17244521,32.10275205,847.303 35.17460565,32.10269077,854.622 35.17699241,32.10258909,875.230 35.17951138,32.10254784,886.279 35.18206804,32.10250680,898.139 35.18473831,32.10244203,915.657 35.18780320,32.10226034,947.257 35.19042105,32.10209745,970.216 35.19352572,32.10188691,996.280 35.19662833,32.10176336,1006.968 35.19901953,32.10159588,1015.819 35.20112890,32.10142672,1024.970 35.20322546,32.10127524,1034.514 35.20511104,32.10119012,1030.073 35.20687642,32.10108764,1036.391 35.20862511,32.10104997,1043.790 35.21027195,32.10105274,1044.959 35.21157633,32.10127550,1030.316 35.21237459,32.10155314,1014.495 35.21266836,32.10187214,996.682 35.21282368,32.10210239,994.557 35.21293963,32.10235944,990.675 35.21298875,32.10260641,985.594 35.21300250,32.10278364,979.640 35.21306209,32.10294259,978.378 35.21312454,32.10310849,975.920 35.21317181,32.10323985,971.050 35.21321042,32.10339739,966.453 35.21316631,32.10342869,964.201</coordinates></LineString></Placemark></Document></kml>