<?xml version="1.0" encoding="UTF-8"?><kml xmlns="http://www.opengis.net/kml/2.2"><Document><Style id="t"><LineStyle><color>ff00ff00</color><width>4</width></LineStyle></Style><Placemark><styleUrl>#t</styleUrl><LineString><tessellate>1</tessellate><coordinates>34.95443975,32.12178759,-781.2 35.09069070,32.10739938,-3054.8 35.14052539,32.10879976,-2879.8 35.14052539,32.10879976,478.1 35.19036008,32.10739938,-2475.4 35.19872854,32.10529657,-2320.0</coordinates></LineString></Placemark></Document></kml>