<?xml version="1.0" encoding="UTF-8"?><kml xmlns="http://www.opengis.net/kml/2.2"><Document><Style id="t"><LineStyle><color>ff00ff00</color><width>4</width></LineStyle></Style><Placemark><styleUrl>#t</styleUrl><LineString><tessellate>1</tessellate><coordinates>34.81346321,32.16854133,214.433 34.81322846,32.16847896,215.047 34.81304467,32.16842028,214.831 34.81280110,32.16830717,219.863 34.81258328,32.16821131,224.833 34.81239770,32.16812809,229.747 34.81203861,32.16797871,233.110 34.81167451,32.16781340,234.854 34.81130809,32.16763420,237.466 34.81095077,32.16745830,240.315 34.81073573,32.16725729,246.131 34.81056605,32.16708120,246.417 34.81039818,32.16692586,247.349 34.81021649,32.16671000,247.064 34.80986380,32.16616693,245.227 34.80952156,32.16560417,241.977 34.80914149,32.16494627,237.482 34.80877350,32.16430196,235.640 34.80837503,32.16359613,234.855 34.80792298,32.16279266,233.774 34.80734844,32.16176156,232.900 34.80676913,32.16073929,233.411 34.80618549,32.15971880,234.745 34.80560881,32.15869633,236.481 34.80519123,32.15768108,246.425 34.80509796,32.15702068,257.239 34.80509315,32.15634718,260.505 34.80517780,32.15573850,265.148 34.80527633,32.15513282,267.853 34.80541269,32.15458182,269.595 34.80538708,32.15358997,269.376 34.80544829,32.15272620,268.796 34.80550883,32.15184119,267.019 34.80556636,32.15092640,263.650 34.80563633,32.14997511,258.702 34.80556726,32.14906660,245.967 34.80543112,32.14816165,228.286 34.80659838,32.14675053,226.603 34.80787537,32.14537243,222.725 34.80999714,32.14411492,199.816 34.81262784,32.14253451,125.764 34.81683529,32.14184133,-133.405 34.82128795,32.14115325,-394.062 34.82575529,32.14048154,-656.012 34.83033125,32.13978960,-921.572 34.83491395,32.13912434,-1189.211 34.83979011,32.13835190,-1455.881 34.84475082,32.13756281,-1720.429 34.84842328,32.13727847,-1992.862 34.85203192,32.13696321,-2264.467 34.85483931,32.13652882,-2515.095 34.85728169,32.13639135,-2705.238 34.85847199,32.13587338,-2712.781 34.85962802,32.13539457,-2708.932 34.86099441,32.13485438,-2690.912 34.86174586,32.13342413,-2442.336 34.86265908,32.13194956,-2179.807 34.86327848,32.13060130,-1916.933 34.86382756,32.12929462,-1657.569 34.86428375,32.12802752,-1398.271 34.86604042,32.12741772,-1372.547 34.86782256,32.12679446,-1360.706 34.86946548,32.12621187,-1358.001 34.87100894,32.12567856,-1351.218 34.87241603,32.12518823,-1352.023 34.87366669,32.12474721,-1361.535 34.87496784,32.12436306,-1348.639 34.87611104,32.12403069,-1344.399 34.87729253,32.12368861,-1337.857 34.87849282,32.12333894,-1326.129 34.87993972,32.12298649,-1313.911 34.88004412,32.12201306,-1068.255 34.88012527,32.12108113,-809.976 34.88038144,32.12021119,-550.775 34.88080376,32.11943001,-292.061 34.88122790,32.11868147,-34.537 34.88162972,32.11797770,219.346 34.88253982,32.11818075,225.351 34.88344857,32.11840283,227.505 34.88434086,32.11864877,224.858 34.88529574,32.11895828,213.371 34.88627489,32.11943969,175.286 34.88738873,32.11999323,137.816 34.88895727,32.12043280,119.067 34.89059580,32.12078218,102.153 34.89222092,32.12099466,94.243 34.89394128,32.12114390,92.941 34.89567012,32.12126540,91.986 34.89749555,32.12134282,91.222 34.89944357,32.12139285,92.423 34.90141806,32.12141876,96.502 34.90333956,32.12138137,106.128 34.90519341,32.12114728,142.385 34.90706500,32.12079683,179.324 34.90848304,32.12053496,198.369 34.90969930,32.12029330,215.467 34.91085818,32.12007003,226.821 34.91193496,32.11987199,227.848 34.91301011,32.11966310,229.487 34.91398868,32.11945527,230.979 34.91487101,32.11924992,232.247 34.91575141,32.11904013,234.569 34.91663217,32.11882341,236.358 34.91736102,32.11862125,237.591 34.91793229,32.11844477,237.823 34.91850305,32.11826740,238.538 34.91907210,32.11808857,239.284 34.91983610,32.11786823,236.466 34.92059570,32.11765782,236.388 34.92132304,32.11746232,233.185 34.92201783,32.11729466,228.183 34.92267526,32.11714339,222.613 34.92423288,32.11777776,-28.589 34.92576413,32.11843253,-281.067 34.92726132,32.11910737,-535.771 34.92873371,32.11980823,-792.480 34.93021280,32.12051805,-1048.984 34.93169810,32.12123919,-1305.289 34.93294437,32.12203017,-1560.845 34.93418016,32.12281666,-1814.225 34.93550426,32.12356931,-2059.523 34.93694626,32.12427554,-2296.106 34.93881467,32.12409492,-2296.869 34.93976681,32.12313267,-2051.696 34.94077413,32.12213942,-1799.592 34.94179163,32.12113056,-1543.693 34.94290858,32.12007382,-1284.688 34.94408534,32.11899140,-1026.862 34.94524541,32.11790202,-769.479 34.94646910,32.11677646,-511.060 34.94773444,32.11563921,-254.841 34.94893731,32.11452231,-4.414 34.95005214,32.11343400,237.875 34.95077260,32.11321113,246.263 34.95149967,32.11298793,252.763 34.95218932,32.11277218,255.467 34.95305634,32.11248713,256.052 34.95384507,32.11221649,255.915 34.95455960,32.11195321,256.257 34.95527788,32.11167624,256.601 34.95591969,32.11141186,256.502 34.95652266,32.11114399,257.250 34.95712216,32.11086473,257.036 34.95772143,32.11057000,257.986 34.95834806,32.11026886,262.129 34.95900953,32.10995493,270.480 34.95967669,32.10962263,277.187 34.96015020,32.10933399,280.303 34.96114869,32.10887573,312.540 34.96237498,32.10816602,325.755 34.96372754,32.10740975,337.317 34.96497647,32.10671520,332.092 34.96619227,32.10605044,324.903 34.96789266,32.10561129,278.744 34.96959301,32.10520306,235.758 34.97130135,32.10484199,184.436 34.97379215,32.10425524,173.001 34.97634040,32.10370892,166.214 34.97889759,32.10320454,165.713 34.98093462,32.10291421,135.990 34.98272461,32.10291155,127.356 34.98439432,32.10300627,120.082 34.98614659,32.10307580,127.062 34.98791580,32.10315932,132.323 34.98918137,32.10305301,175.422 34.99153786,32.10367141,91.323 34.99401496,32.10420108,-19.127 34.99570606,32.10500007,-177.171 34.99985189,32.10507042,-210.858 35.00457117,32.10496783,-211.800 35.00933987,32.10487294,-203.428 35.01421800,32.10477802,-186.469 35.01928070,32.10466575,-173.223 35.02437766,32.10454301,-158.126 35.02991205,32.10438491,-136.780 35.03552560,32.10420528,-111.628 35.04069743,32.10315324,35.319 35.04572534,32.10215626,212.574 35.05073913,32.10112740,392.600 35.05325431,32.10080698,445.458 35.05572002,32.10052240,466.997 35.05813455,32.10019544,478.969 35.06046475,32.09985013,480.542 35.06260998,32.09948562,487.164 35.06523386,32.09896432,496.024 35.06748600,32.09843669,501.793 35.06991851,32.09784303,506.467 35.07175329,32.09736294,514.573 35.07387919,32.09679495,524.963 35.07624557,32.09616477,537.780 35.07860460,32.09553191,548.272 35.08074072,32.09499271,556.668 35.08326225,32.09472932,518.865 35.08608811,32.09454857,467.146 35.08948649,32.09420243,445.831 35.09267139,32.09402121,444.388 35.09582019,32.09388545,442.244 35.09871380,32.09383734,442.210 35.10153624,32.09382800,442.981 35.10403602,32.09392924,439.464 35.10629381,32.09413433,432.899 35.10858955,32.09439779,429.925 35.11063364,32.09473799,421.644 35.11235158,32.09486355,464.827 35.11376078,32.09493699,521.298 35.11461208,32.09522366,540.064 35.11514657,32.09550124,536.889 35.11564931,32.09577341,531.545 35.11627646,32.09612245,512.013 35.11697411,32.09650709,494.857 35.11770356,32.09690733,478.989 35.11853105,32.09734748,476.530 35.11929552,32.09775392,474.323 35.12003758,32.09814305,481.251 35.12067745,32.09848431,483.130 35.12131225,32.09882042,485.560 35.12202643,32.09920756,478.967 35.12289748,32.09968678,460.298 35.12391342,32.10024804,453.440 35.12493128,32.10081926,472.324 35.12593787,32.10139202,486.405 35.12691114,32.10194721,504.280 35.12780256,32.10245860,512.790 35.12869634,32.10297118,521.570 35.12959025,32.10348178,524.723 35.13052375,32.10401391,528.454 35.13147271,32.10454858,531.430 35.13232945,32.10501574,549.374 35.13307394,32.10540886,580.240 35.13369731,32.10572726,601.780 35.13421525,32.10596863,609.413 35.13469346,32.10618444,616.938 35.13519570,32.10640617,622.570 35.13566529,32.10662548,621.409 35.13617000,32.10685752,620.215 35.13665339,32.10708439,616.465 35.13716344,32.10733095,609.779 35.13771039,32.10760052,596.248 35.13830948,32.10783367,586.116 35.13925656,32.10832696,536.685 35.14025836,32.10877996,494.105 35.14126871,32.10922932,449.944 35.14314791,32.10936970,457.306 35.14502947,32.10952207,458.668 35.14718270,32.10975643,445.542 35.14973362,32.10982578,455.419 35.15228141,32.10986345,467.937 35.15479422,32.10983380,483.463 35.15722283,32.10974738,506.535 35.15956115,32.10966224,526.843 35.16151190,32.10929492,586.305 35.16330259,32.10878323,637.879 35.16503260,32.10822641,690.874 35.16585090,32.10793039,691.436 35.16660907,32.10757097,697.650 35.16703812,32.10706019,723.340 35.16698796,32.10664347,723.586 35.16691060,32.10622037,723.479 35.16678491,32.10577420,722.526 35.16664927,32.10532018,721.207 35.16650026,32.10486032,719.594 35.16634890,32.10439461,716.821 35.16625849,32.10409061,715.370 35.16617630,32.10381322,713.779 35.16706471,32.10350987,722.745 35.16884021,32.10324283,728.446 35.17094483,32.10302242,731.863 35.17308683,32.10279710,732.057 35.17610424,32.10288362,681.842 35.17993474,32.10277029,675.843 35.18418273,32.10256115,690.399 35.18844988,32.10237340,705.041 35.19272628,32.10221938,722.794 35.19700195,32.10207467,741.178 35.20129086,32.10194685,759.910 35.20463848,32.10194203,769.387 35.20711878,32.10196991,783.919 35.20929095,32.10203436,801.742 35.21148916,32.10217431,822.059 35.21270046,32.10190118,887.698 35.21320849,32.10187181,914.102 35.21327865,32.10199480,918.874 35.21334584,32.10214889,925.723 35.21341296,32.10231033,930.026</coordinates></LineString></Placemark></Document></kml>