<?xml version="1.0" encoding="UTF-8"?><kml xmlns="http://www.opengis.net/kml/2.2"><Document><Placemark><LineString><tessellate>1</tessellate><coordinates>34.81135787720967,32.16970512361475,-2791174.578679679 37.47539900231399,38.58195466566622,-2791139.913283871 40.13892018733214,44.99420420771769,-300.31503852270544 40.13864474354905,44.99578941688417,-2164149.671424277 40.13836929976596,44.99737462605066,-2164701.02426908 40.13836929976596,44.99737462605066,-2165235.69083701 40.13836929976596,44.99737462605066,-2165760.565101741 40.13836929976596,44.99737462605066,-2166313.6149328873 40.13774976312411,44.99737462605066,-2166850.0684548095 34.81354863826629,32.16923234130028,-247.30580852273852 34.81353306415973,32.16921119623107,-258.48366812057793 34.81353306415973,32.16921119623107,-579.2476246831939 34.81353306415973,32.16921119623107,-562.9196063634008 34.81353306415973,32.16921119623107,-578.8665305869654 34.81346134330134,32.16921119623107,-573.2090986436233 34.81312179166355,32.16921561761055,-364.6202557850629 34.81312179166355,32.16922058033425,-249.55783166363835 34.81312179166355,32.16970554232454,-375.05663078837097 34.81337708774268,32.16970554232454,-233.68026067875326 34.81337708774268,32.16973174397881,-150.77851855568588 34.81337708774268,32.16973174397881,-150.31572678964585 34.81337708774268,32.16973174397881,-152.83370004128665 34.81337708774268,32.16928039524317,-65.55039890948683 34.812544074784334,32.1705994393351,-151.46571552287787 34.812544074784334,32.16928039524317,-56.884598731063306 34.81254420217544,32.16928039524317,-240.69809374585748 34.81337708774268,32.16882455869261,-71.96537749189883 34.81345895189825,32.16928039524317,-142.31208993773907 34.81346785328269,32.16928039524317,73.44936897326261 34.81346785328269,32.17060510529396,-139.06878567207605 34.81346785328269,32.170634229989034,-85.15317395236343 34.81345895189825,32.170634229989034,-2179179.1846630014 34.81354926499388,32.17060510529396,-2179725.75280538 34.813940211144605,32.17060510529396,-2180249.485907024 40.11898371860264,43.761870054720056,-2122731.351340214 40.11898371860264,43.761870054720056,-551.4954743292183 34.813940211144605,32.16969564371032,-208.7066835174337 34.81354926499388,32.1691052742428,-413.14171316009015 34.81326545704141,32.16904262678151,-2182922.4203849286 34.81326545704141,32.16904262678151,616.3115774681792 34.81354926499388,32.1691052742428,-28.217938483692706 34.813037807236036,32.1691052742428,-58.17666808888316 34.812984930304346,32.16875763934587,-108.55722344852984 34.81297261970145,32.16875763934587,-396.14008701313287 34.812984930304346,32.16875763934587,-842.4741749167442 34.813037807236036,32.16888689773055,42.593023708090186 34.813187948159225,32.1697041622617,-536.4835083382204 34.813187948159225,32.1697041622617,-42.21691717300564 34.81297261970145,32.16973580942183,-373.8950487598777 34.81297142134416,32.16888689773055,-404.40411898493767 34.81297142134416,32.16900048042967,-393.56730837840587 34.812655514693944,32.16972998028228,-643.0385785531253 34.812655514693944,32.16972998028228,-406.3073210157454 34.81208635119216,32.169669939055865,0.35058725252747536 34.81151465100845,32.16900048042967,637.3356772037223 34.811484513154284,32.1689033268007,-402.6653383914381 34.811484513154284,32.1689033268007,-308.6680398331955 34.81144163237748,32.168779700274314,-48.95163203217089 34.811267270471454,32.16812485275217,-639.0003320034593 34.811267270471454,32.16812485275217,-106.37597856391221 34.811267270471454,32.16812485275217,-715.4733355809003 34.811267270471454,32.16812485275217,-650.544067508541 34.81088348052349,32.16812485275217,-645.6488244859502 34.81085108010071,32.16844037924977,-685.3594191046432 34.81079494305892,32.168634238099045,-398.2999963378534 34.81069411379669,32.16930028021374,-385.87873855419457 34.81069411379669,32.169334447414286,6.80356090888381 34.810359055927364,32.169334447414286,-325.33195745851845 34.810359055927364,32.169334447414286,-320.07361560035497 34.81029774295998,32.16930028021374,-316.1644587125629 34.810255589740876,32.16844037924977,-412.8092702711001 34.810255589740876,32.16837358192185,-88.17321346886456 34.81024583237993,32.167704487282315,-157.51236402150244 34.81024583237993,32.167704487282315,-715.2692865412682 34.810359055927364,32.167704487282315,287.45515162404627 34.810359055927364,32.167704487282315,257.6731692738831 34.81040228581006,32.167704487282315,-60.46881184447557 34.809829569499016,32.167704487282315,-401.8800250319764 34.81001221858157,32.16817380392213,-390.7155702020973 34.81001221858157,32.16817380392213,-399.77010350394994 34.81001221858157,32.16817380392213,-400.81054747942835 34.81001221858157,32.16817380392213,-718.5463029872626 34.80987888096598,32.16813146565273,-413.03786189481616 34.809829569499016,32.16798146738735,-386.935211696662 34.80963841533393,32.16776554171365,-229.89512820728123 34.808742347483225,32.16765170042018,-391.4664685660973 34.808742347483225,32.16765170042018,-310.00228295940906 34.808562477721026,32.167602304681814,-333.74524254351854 34.80828137107995,32.167602304681814,713.5435944125056 34.80828137107995,32.16765170042018,64.7148907976225 34.80800164753984,32.167602304681814,-222.82976829633117 34.807958164967864,32.16765170042018,75.60435326490551 34.807866101445235,32.16776554171365,-327.5587340667844 34.807866101445235,32.16788736178731,-323.8703845050186 34.80753432827993,32.16798600523341,-230.66558864340186 34.807398950185416,32.16798600523341,-340.66784198209643 34.80717880552344,32.16798600523341,-331.9292057007551 34.80704397380708,32.16798600523341,-322.231438617222 34.8065725112498,32.16767172983854,-325.29282426275313 34.8065725112498,32.1678285208012,40.87636537011713 34.80600644324867,32.1678285208012,-52.099554249085486 34.80600644324867,32.1678285208012,-24.770198982208967 34.805885862534964,32.1678285208012,47.99989720527083 34.805752651774775,32.1678285208012,-49.04353516548872 34.805752651774775,32.1678285208012,70.90732168313116 34.805752651774775,32.16798152111678,-127.61985058989376 34.80600644324867,32.16801840749952,-40.647746472619474 34.80621245654857,32.16801840749952,-312.3517062626779 34.80621245654857,32.16801840749952,-737.5285875527188 34.80621245654857,32.16798152111678,-381.2071837745607 34.80567134490506,32.16712966527104,-396.933235976845 34.80623048720204,32.16702288775867,-729.5019157361239 34.80654921123705,32.16702288775867,-470.6155970618129 34.80654921123705,32.16702288775867,-887.5505767175928 34.80654921123705,32.166829919545336,-118.03669312875718 34.80654921123705,32.166633468402566,533.7760803494602 34.80764508434752,32.16662011198182,993.0344055648893 34.80822794356398,32.165500964249055,-880.3535008011386 34.80920836647977,32.1648524048827,-756.8615072863176 34.80923391263572,32.16435740148282,861.6784686362371 34.80923391263572,32.1648524048827,834.0248015783727 34.80920836647977,32.1648524048827,848.6345858341083 34.80920836647977,32.1648524048827,537.2322673210874 34.80920836647977,32.1648524048827,489.0984617760405 34.80923391263572,32.1648524048827,-632.855032957159 34.80905276987184,32.165622867858275,-475.7795304302126 34.80807635329448,32.16565136924062,-766.2623636489734 34.80807635329448,32.16565136924062,-371.9228405812755 34.80807635329448,32.16612526538955,457.05185877904296 34.80905276987184,32.16589753493369,243.87553077563643 34.80905276987184,32.16589753493369,260.13313744124025 34.80940088551773,32.16589753493369,456.37851972226053 34.80940088551773,32.16589753493369,505.5557546587661 34.80940088551773,32.16599070160393,-232.36625519394875 34.80940088551773,32.16663551750031,96.1519704759121 34.80940088551773,32.16663551750031,-382.4749685060233 34.80795830711043,32.16663551750031,188.5169939417392 34.80774896988921,32.16658000464491,-317.46372703276575 34.80732918553316,32.16658000464491,-83.6051843650639 34.80732918553316,32.16676175927651,48.21064842585474 34.80723814104671,32.16658000464491,-701.9389482419938 34.80723814104671,32.16633759660186,-333.03752138186246 34.80705498569209,32.165983787807185,-125.37490999884903 34.80674775717641,32.16591573702248,2449.5655753826723 34.80674775717641,32.16591573702248,213.8834144771099 34.80674775717641,32.16591573702248,-299.180277550593 34.806421916285835,32.16438672853054,-292.99023054447025 34.80642379663146,32.16438672853054,-265.7194961551577 34.80642379663146,32.16438672853054,-573.8985542571172 34.80609617249723,32.165222283354,-445.49374297633767 34.80609617249723,32.165222283354,282.5381078822538 34.80609617249723,32.165222283354,-297.0989331500605 34.80609617249723,32.165222283354,-407.2181952903047 34.80461281536704,32.165222283354,161.9902850696817 34.80461281536704,32.165222283354,173.3703306959942 34.80451578707545,32.165222283354,191.1596961338073 34.804497797420964,32.16494970015823,671.1011549504474 34.80431855034896,32.16494970015823,710.9871305022389 34.80443849990146,32.16482623061937,43.16196714993566 34.804497797420964,32.164719755172904,200.83060491271317 34.804450819479264,32.16437456037593,204.1554078347981 34.804450819479264,32.164228610296306,83.71179072186351 34.804450819479264,32.16417380299831,711.0888437861577 34.804450819479264,32.16417380299831,705.4002021290362 34.804501187038696,32.16412607093274,725.1027628667653 34.804501187038696,32.16412607093274,-743.0054399138317 34.80467779679583,32.16265647774374,-734.3721119323745 34.80481187517531,32.16265647774374,-753.6500284150243 34.80564004458662,32.16265647774374,509.6083437567577 34.80666493626489,32.16265647774374,631.8564023710787 34.80674120548985,32.16417861825933,72.03275230061263 34.80766980709356,32.16417861825933,-25.69128506630659 34.80766980709356,32.16761362938959,-2298027.9764623875 34.80660338006057,32.16761362938959,-2298673.7438086197 34.80660338006057,32.16761362938959,-2299318.371072249 34.80660338006057,32.16761362938959,517.3274796279147 34.80660338006057,32.16443119127525,-44.96420666296035 34.8042895175115,32.16437086906054,-584.206784227863 34.8042895175115,32.164352884313594,617.2717160917819 34.804072404966234,32.164352884313594,624.9447140488774 34.804072404966234,32.164352884313594,636.7713865749538 34.8042895175115,32.16433809505282,613.7812477303669 34.804072404966234,32.16433809505282,669.7307196585461 34.8042895175115,32.16433809505282,623.1836826363578 34.804072404966234,32.16433809505282,671.4966830899939 34.804534266945275,32.16425671172112,689.1645181896165 34.804534266945275,32.164210808688345,10.616512059234083 34.80431028698859,32.164210808688345,-2307863.389732769 34.80431028698859,32.16416941570387,-2301633.418088617 34.804277233874224,32.16403901244055,-350.02254689112306 34.8039882489277,32.16390386478968,670.8672576881945 34.8039882489277,32.163830043295725,672.3674912303686 34.8039882489277,32.163766382899425,621.9148786989972 34.8039882489277,32.16364778342645,667.5785561744124 34.8039882489277,32.16336857126685,664.9695776700974 34.80387253094392,32.16336857126685,647.6041756588966 34.80387253094392,32.16307882886368,-148.56721683871 34.8037665319786,32.16291981446132,666.3130630189553 34.8037665319786,32.16285957604931,-135.48912252672017 34.8037665319786,32.16285957604931,-144.06156930606812 34.80370079555922,32.16227677085031,-128.1070090085268 34.80341200709206,32.16227677085031,690.9071224937215 34.80341200709206,32.16111982927183,-326.29313899669796 34.80322148844098,32.1610634413625,133.88734072819352 34.80276481345248,32.16099751088114,-233.13659982196987 34.80239397544179,32.16099751088114,146.12518485914916 34.80239397544179,32.160023764123366,-336.3283789297566 34.80218794174125,32.15994809806582,158.73716859705746 34.80218794174125,32.158958618247894,-236.90333864931017 34.80216541764998,32.158958618247894,-246.6692098006606 34.80218794174125,32.158958618247894,-326.44910836964846 34.80218794174125,32.158958618247894,-224.61578410491347 34.80218794174125,32.158940281041325,-241.43730686511844 34.80298910672993,32.158789627810236,155.08102249447256 34.80298910672993,32.15822493425096,107.13745659962296 34.802104323649814,32.15804361802508,103.86226530373096 34.802104323649814,32.157070378856645,431.88012275937945 34.802104323649814,32.15683446923027,887.1921704569831 34.802104323649814,32.156632739624186,-329.99570417031646 34.801912965011205,32.156421941657996,-334.4909590696916 34.801878512766834,32.156421941657996,-329.2875811131671 34.80179387767586,32.156421941657996,-238.06423542648554 34.80179387767586,32.156562897751286,-331.2955374484882 34.80179387767586,32.156562897751286,-245.32202565856278 34.80168559489461,32.156562897751286,-397.88471080269665 34.80168559489461,32.15644958545536,-334.88495341409 34.80169985388576,32.156562897751286,-374.56300238799304 34.801745959347365,32.156562897751286,-382.5086733913049 34.801824379345284,32.156562897751286,-314.88399315066636 34.801824379345284,32.156562897751286,-325.7865914274007 34.801824379345284,32.15656814877424,-291.10475034546107 34.801824379345284,32.1565781148622,-126.91229184251279 34.801745959347365,32.15660756308624,854.9914684770629 34.801824379345284,32.15662247860007,-369.16204896662384 34.801824379345284,39.831314207732554,-2515239.646967581 34.802656245798865,42.78505818009986,-2366338.286358958 34.80388536710402,42.78505818009986,-1985410.408063463 34.83393006188081,43.98075068342233,-3275930.6690711933 35.182948503305816,43.98482024172324,-2530207.517672806 35.235659853561,43.98482024172324,-2241189.3451042157 35.235659853561,43.98482024172324,-2334876.9808458393 35.235659853561,43.79545011234908,-2369815.1614995482 35.235659853561,43.79545011234908,-2370175.7975741937 35.235659853561,42.717924007509914,-2272963.188860768 34.803745177056626,32.15737795245688,-364.94481941405684 34.80298103813737,32.15737795245688,-306.0706373490393 34.80260864175439,32.15737795245688,-366.97806547023356 34.80249973980196,32.15676191545504,-310.0713410153985 34.802298900046594,32.15665214150104,81.95606680121273 34.80219437202449,32.15676191545504,-35.48277641274035 34.80219437202449,32.15676191545504,-42.13271654676646 34.80219437202449,32.15680481367875,-726.2174145216122 34.80219437202449,32.15680481367875,-424.94866693392396 34.802298900046594,32.15680481367875,-705.5781492553651 34.805330586703136,32.15676191545504,52.15714420750737 34.805330586703136,32.15665214150104,187.8102295268327 34.805687216239356,32.15515914324918,-374.5271150190383 34.80595094881386,32.154908137981366,129.55209012236446 34.805994354109416,32.15473088172322,-374.1788993747905 34.80611664670901,32.15473088172322,606.9356507342309 34.80611664670901,32.15445697802526,-53.85590828768909 34.80611664670901,32.15424758084486,-372.8223244184628 34.805994354109416,32.153683672991846,-368.7712247669697 34.805994354109416,32.15352828594021,-94.97385523095727 34.805994354109416,32.15309596954394,-87.78599339630455 34.805969964759605,32.15274410792674,620.2256771018729 34.803720536356856,32.152703227777145,696.6680974215269 34.803720536356856,32.152703227777145,177.61201537866145 34.803720536356856,32.15244629923552,683.0566504774615 34.80358799792787,32.1522334291824,724.9719154220074 34.8034247202114,32.15165335979691,695.1813310710713 34.8034239837562,32.15165335979691,104.2010157275945 34.8034239837562,32.151417742330466,-215.72537588700652 34.8034239837562,32.150601745110166,706.3913061618805 34.80341717869829,32.150601745110166,-383.04839942231774 34.804034215057165,32.14996391874317,26.44913000240922 34.80341717869829,32.14996391874317,-508.5447910130024 34.80253705276294,32.14996391874317,-404.07485512830317 34.801766456890874,32.14996391874317,-114.29038811661303 34.801766456890874,32.15077362362243,-384.4606511471793 34.80225551880318,32.15077362362243,-29.694053426384926 34.80225551880318,32.15077362362243,676.7859405735508 34.80225551880318,32.15077362362243,-183.58256128244102 34.80264479399213,32.149703132411496,102.66398398391902 34.80264479399213,32.149703132411496,308.5741188870743 34.80275433931429,32.148781610349964,292.8636001339182 34.80287916304481,32.14782636053017,-52.19352908246219 34.80313390490486,32.147162288115304,262.9521671710536 34.80287916304481,32.147162288115304,-59.034517829306424 34.803043766053484,32.14709984129856,-63.086547300219536 34.80287916304481,32.14688506198457,-376.54018137604 34.802865555967166,32.1466882995187,-380.5444587767124 34.802865555967166,32.14632947744508,4.466153707355261 34.802865555967166,32.146218509039514,-366.8029064545408 34.80022795277625,32.146108728741325,581.1472304165363 34.80022795277625,32.14550737652487,-364.67293529957533 34.79995869392888,32.14550737652487,555.1971238330007 34.80022795277625,32.14546318005513,582.1395284980536 34.80022795277625,32.14515996313484,588.1196331772953 34.80003356774897,32.14487127057889,-1074.318711221218 34.80003356774897,32.144282794076645,-1304.1292570838705 34.80163420820686,32.144282794076645,1800.5372508121654 34.80163420820686,32.14260086878684,1307.2307453844696 34.80194727740931,32.142382743502104,-14.760155492462218 34.80194727740931,32.142382743502104,166.49834693782032 34.80239026318564,32.142032257997855,-2843.435776458122 34.80239026318564,32.142382743502104,29857.573070067912 34.80239026318564,32.1425126699571,146.56577761657536 34.80250161184058,32.1425126699571,135.99584450013936 34.80318940076832,32.1425126699571,-530.7651275945827 34.80318940076832,32.142382743502104,136.2497507641092 34.803603992116074,32.1425126699571,130.59176015853882 34.80406802490381,32.1425126699571,53.47555887233466 34.8040956015801,32.142032257997855,41.36844677105546 34.804151197325105,32.14261566543516,-491.01515064388514 34.80821854905182,32.14263478796277,-1466.0764506794512 34.80876726331854,32.14266049283023,170.2138319592923 34.81139519329663,32.14266049283023,502.305697273463 34.81162040298008,32.14278801147065,-1157.2325708912686 39.92100303259551,37.12537032683531,-2518620.5500439606 39.92100303259551,44.1621068531704,-2350812.369503922 39.92120553544066,44.1621068531704,-2351375.367906928 42.78856330957806,44.1621068531704,-2260700.0506939604 51.935391323625616,44.65092483844776,-2405685.0927731413 42.78856330957806,44.65092483844776,-2333974.5179816564 42.78856330957806,44.65092483844776,-2373635.2412841707 42.78856330957806,44.1621068531704,-2262439.2999221594 39.764840057511066,44.04150010392104,-2257271.0632693926 39.76077978231861,43.08271250559801,-2428058.350724493 36.157501839623926,32.14113121080377,-2336227.2719165827 34.81790991261889,32.14113121080377,-329.5895912172273 34.81790991261889,32.1411134556382,52.09670333843678 34.81790991261889,32.14073310212685,48.2628401722759 34.81790991261889,32.13976472725478,-407.8768489668146 34.81790991261889,32.1396374640608,-374.73379862029105 34.81792267843234,32.1396374640608,-322.73437490779907 34.81967571138989,32.1396374640608,-355.7180659612641 34.82022945561377,32.1396374640608,-357.45904992334545 34.82036599217291,32.13959616927594,-406.4553768392652 34.821306541004326,32.1395486984754,-360.24356728233397 34.821955318053625,32.13959616927594,-3657.1464086268097 34.82457783082149,32.1395486984754,-312.53324928786606 34.8266105912681,32.13937348514737,2285.7910158857703 34.82764559827262,32.139046965355746,-903.0510320877656 34.82788102553107,32.13690870806303,-310.7959241429344 34.827692658406455,32.136205069851286,57.57205832004547 34.82788102553107,32.13577293925887,190.31685380917042 34.82980099923012,32.13577293925887,-366.9600238977 34.83252522170305,32.1354687921049,-216.5908422935754 34.83258537677406,32.13528612864599,470.2228222768754 34.83332315869061,32.13468867177639,-368.15018734242767 34.83341663723858,32.13468867177639,-274.65343587845564 34.834039299718434,32.13468867177639,595.7080998709425 34.834039299718434,32.13468867177639,97.23594846017659 34.83568728278454,32.13443344064251,605.3609767975286 34.83629716575924,32.13365557271978,303.1472826246172 34.83631375761748,32.13365557271978,299.07182275597006 34.8369563324422,32.13348032145606,-416.5419903509319 34.83713250010943,32.13332963080882,-347.9819277320057 34.83752471158544,32.132278487101686,-206.1665086625144 34.83773703465825,32.13192730564687,82.27098936587572 34.83838593081262,32.13144032302637,45.43141594622284 34.8388099239684,32.13135856091885,-355.19311557896435 34.83972711478943,32.131050479008984,32.919855180196464 34.83984857388533,32.13135856091885,576.398856671527 34.84000087863163,32.13135856091885,81.37210753187537 34.84059464567663,32.13192730564687,189.58768143318594 34.84167803400229,32.13192730564687,-20.270663291215897 36.45511182738901,43.84893176465004,-2344877.531926114 36.729965033885385,43.8563809680366,-2344948.7981797545 52.582056265327324,43.86381746191717,-2345027.907062761 52.582056265327324,43.86381746191717,-2266082.1877533267 52.582056265327324,43.86381746191717,-2310555.8321527597 52.582056265327324,43.91594889436839,-2471543.8287105234 36.729965033885385,43.91594889436839,-2141018.5062744496 36.45511182738901,43.91594889436839,-1194.803201597184 34.84818806763675,32.13208103589117,-97.61532970238477 34.84818806763675,32.13190383620304,-2345512.492749805 34.84775024567053,32.131494080440106,593.6297170920298 34.84775024567053,32.131494080440106,-35.20815337076783 34.84775024567053,32.128680854747856,-210.62414684519172 34.84840721659383,32.12860828630277,-635.451664397493 34.84840721659383,32.12813723222851,603.8735902188346 34.8493560969759,32.12813723222851,-1961.1103473315015 34.849817355556034,32.127102486707585,-52.880980245769024 34.849864063741364,32.12692516302334,-49.55859506689012 34.85032675886984,32.12692516302334,-204.08285090140998 34.8518774827447,32.12692516302334,-221.02459999732673 34.8518774827447,32.12692516302334,-47.273750946857035 34.852695299282985,32.12692516302334,349.2067491551861 34.85378112658029,32.12692516302334,-621.7678870372474 34.85536335744636,32.12692516302334,-354.2902205539867 34.85610075216604,32.127705641455584,-990.6110503319651 34.857224110606055,32.127705641455584,371.3345802919939 34.857224110606055,32.12784504157489,136.8835659371689 34.85743326515369,32.127705641455584,-1967.3090679440647 34.8578194575168,32.12770098710538,-10630.404871121049 34.8578194575168,32.12770098710538,-364.78088830411434 34.85743326515369,32.12770098710538,-634.0289842607453 34.86072442251557,32.12770098710538,-653.0922016147524 34.86026487972917,32.1268907015685,504.8661880912259 34.86026487972917,32.125395534237484,-1990.4076379537582 34.86026487972917,32.123839531586185,-636.1773574762046 34.86039650451879,32.12383439220401,151.33801181335002 34.860578552989345,32.12360601754844,-391.4881031373516 34.860578552989345,32.12326358799389,-388.9505696743727 34.860578552989345,32.1225308536315,30.790900274179876 34.86072442251557,32.122252368031795,12.12621119339019 34.86297350407811,32.122252368031795,315.03758847434074 34.86367929916299,32.122168512971726,145.7519890042022 34.86410297784916,32.1220771272262,774.7886991230771 34.86505067869296,32.12212336136094,-308.84618062060326 34.86517148864779,32.12212336136094,-78.90012062899768 34.865357734737934,32.1220771272262,-354.18484434485435 34.865448687165056,32.12212336136094,-353.2559906709939 34.86560276892119,32.12212336136094,-392.1518182978034 34.866729979130035,32.12212336136094,-295.476528564468 34.86683793321919,32.1220771272262,-403.19831061176956 34.86779216122212,32.12195146099497,-534.7553500765935 34.86924444894474,32.12173735358637,345.74553774949163 34.87023191719123,32.12046572128117,91.55677217617631 34.87118203069649,32.12037266885817,506.5560488719493 34.87164098725975,32.120315556138245,-253.89122327510267 34.872039772389385,32.120200964979745,220.2304195612669 34.872039772389385,32.120200964979745,-264.59843841940165 34.87223921608524,32.12000525830372,346.7232028702274 34.87292064620896,32.11957220489282,516.4810930425301 34.87304009210626,32.11903218567504,-44.04533345345408 34.87316526399515,32.11873449399401,-21.083703262731433 34.8735867945068,32.118538554586685,-13.525307863019407 34.8735867945068,32.118538554586685,-47.10469074267894 34.8735867945068,32.118538554586685,-14.969370890408754 34.8735867945068,32.118538554586685,7.810133891180158 34.874145658660524,32.118538554586685,-13.6037307549268 34.87490177103991,32.11847119562502,-390.6292062718421 34.8757315627418,32.11820185994864,-343.7517436016351 34.87579802388689,32.118818603102206,-384.7165544787422 34.876235505092346,32.118818603102206,-390.87181970477104 34.877052140015394,32.1188772196305,-56.84412024356425 34.87761777787348,32.1188772196305,-47.658608647063375 34.87782682038321,32.11888139415494,-401.5134760532528 34.87812398455591,32.118818603102206,-53.57362647075206 34.878693844796175,32.11801700794828,72.71100186277181 34.87918000852412,32.118818603102206,-396.2671124693006 34.879469742636054,32.11900481196966,67.88214855734259 34.88016267104121,32.11900481196966,-40.39970312360674 34.88081462443101,32.11900481196966,-52.211952864192426 34.8808403824305,32.11900481196966,12.248770383186638 34.88128425612907,32.11967839619483,-55.05606041196734 34.882976517408814,32.11967839619483,682.530222072266 34.883427667646224,32.12005180616471,910.1144520137459 34.88376222375878,32.12012773201003,-275.28150909766555 34.88467695274267,32.12122621065689,66.20255199447274 34.885056232512994,32.12147799210166,63.69429375231266 34.885056232512994,32.121742546731326,-399.2550570629537 34.88514347906913,32.12202040745193,-390.81703609693795 34.88533320306924,32.122030225092,-397.4761808011681 34.88561742752757,32.12202040745193,74.2878801682964 34.88648754046739,32.121742546731326,-362.23707580473274 34.8869495304177,32.121742546731326,-356.32079875841737 34.88748168134114,32.12202040745193,-337.5915708420798 34.88837030068811,32.12219937613881,-43.825303620658815 34.88892013464303,32.12219937613881,-47.86306854337454 34.88942754693599,32.122318624465144,-64.1614518482238 34.89056181393327,32.122318624465144,-293.6647427836433 34.89095570053378,32.12228846878612,-293.27214647457004 34.89167151499478,32.12228846878612,-285.4090835954994 34.89350454509417,32.12228846878612,-1022.9595699142665 34.89411334209314,32.122788303491966,244.40344580635428 34.894745159912624,32.122973245991645,-55.230751572176814 34.89521253631564,32.12228846878612,-53.66534294374287 34.895226827137705,32.12228846878612,-52.37601159606129 34.895226827137705,32.12227830867613,319.9966119658202 34.89571008477246,32.12227830867613,-371.59768510237336 34.89663010955281,32.12227830867613,-43.04524600505829 34.896867912204364,32.122973245991645,-403.7176219634712 34.89778619590059,32.123405240657085,-45.36597427353263 34.897833080045885,32.123467139351355,-57.09199390839785 34.898338774909966,32.124486165314494,77.70529176667333 38.136340894183526,43.527963016790885,-2455313.9494885784 38.17506532811157,43.97655353384228,-2524893.296020322 38.20094286741873,43.98374926529543,-2070999.6082640728 43.593373366912374,44.012124450908054,-2071429.7290907865 52.19861460156029,44.02653021301913,-2526590.1422017133 43.593373366912374,44.02653021301913,-2444584.139017498 56.74458078997634,44.02653021301913,-2527720.0988306766 56.74458078997634,44.027657207719606,-2073152.999601636 43.593373366912374,44.03341454337592,-2352611.4636729704 43.593373366912374,44.03341454337592,-2529420.2191871936 56.74458078997634,44.03341454337592,-2074457.378733988 60.891321572096736,44.03365358546214,-2074875.8113668896 56.74458078997634,44.03365358546214,-2520761.2926314473 43.39158782057596,44.03341454337592,-2531687.393173379 43.39158782057596,44.03341454337592,-2076172.8041387415 38.29121676574058,44.022639475731516,-2076605.2981025446 34.91217697647856,32.121666262565576,121.33676520455629 34.91217697647856,32.121666262565576,166.06663222424686 34.91217697647856,32.121666262565576,-305.5922882128507 34.91217697647856,32.121666262565576,166.67846850678325 34.91217697647856,32.121666262565576,-388.1641187733039 38.42164538155052,44.016292203365126,-2353553.980567667 38.42164538155052,44.016292203365126,-2353625.378674701 38.42164538155052,44.016292203365126,-2537360.3736153985 38.42164538155052,44.016292203365126,-2353783.518439911 38.42164538155052,44.016292203365126,-2353867.159772726 34.91541926417961,32.1206131464451,555.6625620033592 34.91541926417961,32.12060515471637,-403.20468642376363 34.91541926417961,32.12044140788163,-404.95930149406195 34.91541926417961,32.12042208885361,-387.8254131246358 34.91541926417961,32.12031243663013,-384.4964269902557 34.91573227783075,32.12006116325837,-381.7728783497587 34.91646838319106,32.11995065934949,-383.05715037416667 34.9169623564682,32.11979796912995,-375.0287009719759 34.91745955394622,32.11964819711367,-381.6899562049657 34.917988324798465,32.11950415929334,-385.59368841256946 34.91850639856455,32.11931843250313,-384.27304351329803 34.91908340954172,32.119135185476,-376.59096265397966 34.91955622220876,32.11900256820908,-383.3894444908947 34.920427991966555,32.11851088610226,-38.036651751957834 34.92066811461547,32.11841198446267,0.1287224804982543 34.92136672682722,32.11829170318031,-374.35862050578 34.92187255016106,32.1181176033732,-379.7679400406778 34.92241916562903,32.11795391889542,-377.5285624694079 34.9232620317697,32.11795391889542,159.15571545343846 34.92369341113425,32.11795391889542,-380.5251059932634 34.92417740697428,32.117930549419135,-387.53749026264995 34.92439837563489,32.117913518605924,-381.854334006086 34.924965995244044,32.1177984895249,-381.71702127344906 34.92538839823027,32.1177984895249,-387.02683127857745 34.92649665829956,32.1177984895249,-51.92817206308246 34.92705335070619,32.1177984895249,-46.360477747395635 34.927583849702216,32.1177984895249,265.57797206379473 34.92814772224,32.1177984895249,272.5487588290125 60.089049274465566,44.37797252988092,-2116022.680291986 60.09002446008055,44.38530082014158,-2116512.80626453 60.09002446008055,44.38530082014158,-2117007.978782626 60.09002446008055,44.38530082014158,-2117496.848002365 60.09002446008055,44.38530082014158,-2094828.3780452777 60.09063780026173,44.38530082014158,-2095235.1894149417 60.0912759608362,44.38530082014158,-2558414.5879052286 60.0912759608362,44.38530082014158,-2558973.666766352 48.92217464697325,44.38530082014158,-2559534.9128724555 48.92217464697325,44.77716110863879,-2120447.4130028263 48.91484220903323,44.77716110863879,-2120943.6885143127 48.92217464697325,44.786158442233514,-2551093.152859204 48.92925428148175,46.95036372175143,-2551201.9858816755 48.92925428148175,46.95036372175143,-2551309.468440206 48.92217464697325,46.95036372175143,-2562907.8534743018 48.92217464697325,46.95859016280578,-2551521.473925684 48.92217464697325,46.95859016280578,-2551628.780045983 39.1184967656166,43.98046938151747,-2564584.58532154 39.104857945590396,43.97799904944898,-2565148.815774624 39.104857945590396,43.97709117382832,-2551953.909128007 39.077439962765155,43.975341107303684,-2566268.139794077 39.063850399772555,43.97443727455181,-2566833.359584515 34.94551267587281,32.11703563438711,-329.53134181629866 34.94551267587281,32.11703563438711,144.25093949679285 34.94551267587281,32.11703563438711,-1077.5952878464013 34.94551267587281,32.11703563438711,134.16774919070303 34.94551267587281,32.11703563438711,678.0779905607924 34.94939802352874,32.11827422058781,-2482331.3202610575 34.94939802352874,32.11827422058781,-2407412.8644203963 34.94939802352874,32.11827422058781,-2407426.5270174136 34.94939802352874,32.11827422058781,-2363163.8761883625 34.94939802352874,32.11827422058781,-1464.5814321832731 34.94679196166815,32.1159674039874,-362.69276613462716 34.94679196166815,32.115803960032125,-371.2030121870339 34.94679196166815,32.115685404721724,-372.4783537937328 34.94679196166815,32.115409742450474,235.6967660645023 34.94679196166815,32.115057571750775,-370.2809855649248 34.947650328422,32.115054810004466,-24.20847240742296 34.947762382269254,32.114941253579396,-383.8044642424211 34.94800926891408,32.1148287359724,-368.91454651765525 34.94841450146148,32.1148287359724,-367.963875727728 34.94884626102745,32.11468996120842,-358.28889482002705 34.949200034016194,32.11468996120842,-366.50247184280306 34.94965384176447,32.11454518597959,-366.2586276065558 34.95009114595167,32.114424365901364,-363.67222419567406 34.95058036993115,32.11426665723532,-359.6767859440297 34.950994103133105,32.114127997001304,-362.5440187631175 34.9514340069307,32.11400413891331,-368.72599106281996 34.95192651981734,32.11385511713035,-366.8972934857011 34.95238067826642,32.11370074091449,-359.88845768012106 34.9527925058146,32.11354285822214,-356.5085382880643 34.95381864724374,32.1128929313645,-24.253949406556785 34.95389375225634,32.11268637015,34.53015233296901 34.95396524942909,32.1124194197077,73.01210410706699 34.95456612007696,32.11215959500709,-360.8082398781553 34.954979264133215,32.11199033783792,-364.44568464066833 34.95555345610726,32.11188776215033,-363.9540928276256 34.9558537927244,32.11188776215033,-356.23722726572305 34.95627267740788,32.11188776215033,-362.47545608505607 34.95670742972049,32.11161905405426,-361.2980605075136 34.95717222945616,32.111324684219866,-352.1976445829496 34.95761878743297,32.11104055660937,-356.30473405402154 34.957722088019935,32.110780096615294,-348.5092908926308 34.95801138031594,32.11048759765618,-342.2402981100604 34.95850964156165,32.10994167352481,595.472937551327 34.95938414073464,32.10990057003888,-341.74497734289616 34.959805248789465,32.10964650216439,-336.54617760237306 34.96024503593559,32.10935324909425,-343.6467280490324 34.96113063264223,32.10878710591668,-6.324013989418745 34.961184570572,32.10850807141401,-343.49290980771184 34.961613666244894,32.10824658751635,-328.17504213005304 34.96204144865184,32.108003085377696,-320.924800475128 34.962445511915405,32.10765434352126,-321.4971708310768 34.96254240895036,32.10765434352126,-349.9103347864002 34.96296465134223,32.107283072305826,-364.4235412180424 34.963005527997794,32.10681608574393,606.0365901822224 34.96335096231914,32.106510285277245,617.7504622582346 34.96431904685105,32.106469334915694,-351.87359356693923 34.96462440518336,32.10621776545354,-336.953949900344 34.9650859018517,32.105752646127506,615.0761853875592 34.96593923066753,32.105661323851486,-319.43139687832445 34.966030074196404,32.1052143659561,201.18465217854828 34.96699889638608,32.10496676320561,-325.7358246454969 34.96747735075667,32.10358223162577,-317.3593568895012 34.967631243172036,32.10358223162577,136.78445788752288 34.968630462959005,32.10358223162577,68.62475847359747 34.96908594229599,32.10371154713157,66.29313592147082 34.969542462621895,32.10301108348527,92.22438444383442 34.96988809436751,32.10301108348527,-319.74020973965526 34.97035411584159,32.10342750158417,-315.84884577430785 34.970874834292275,32.10354908775301,-321.015143209137 34.971622075347874,32.10354908775301,53.60124942101538 34.97176750711344,32.10371154713157,-324.9439697358757 34.972356839219266,32.10371154713157,-320.59907200559974 34.97246289595188,32.10371154713157,143.63976104650646 34.97332128940979,32.104730014858276,-392.5780901098624 34.97620240227616,32.104730014858276,-2517142.1122750794 34.976607543310806,32.104730014858276,-2517620.8388578794 34.977450675012705,32.104730014858276,-2518095.73289592 34.9779782631823,32.10317502434212,-2518577.650321379 34.97921684204688,32.10317502434212,-332.3433562507853 34.97921684204688,32.103157582583904,-323.98941217456013 34.97921684204688,32.10315122342159,-336.10969432629645 34.97921684204688,32.10305235617118,-339.4038060102612 34.97921684204688,32.10175236749941,1.02105329092592 34.97977012729658,32.101719229428454,11.390379634685814 34.980364964447816,32.101719229428454,0.40181291475892067 34.98084881942711,32.10169621095594,5.064409336075187 34.98087813513941,32.10169621095594,3.48800097592175 34.98142691271766,32.101689947745506,5.613810853101313 34.98168114976762,32.101689947745506,-364.46829331852496 34.98192780382538,32.101689947745506,5673.759825925343 34.9821955072804,32.10335076942123,-555.853988122195 34.982791913809145,32.10335076942123,-544.9547581616789 34.984710559427214,32.104094382343725,-126.4676422206685 34.985820974943444,32.10417219409373,-40.263728911057115 34.985820974943444,32.10417219409373,-341.4140538861975 34.98647654841395,32.10412272737991,-293.0061941612512 34.987989109374695,32.10436507912513,-2528584.121616311 34.98843917236295,32.10436507912513,-2529052.307690666 34.988948524074225,32.10436507912513,-320.73124142270535 34.98942796128125,32.10468008561062,-326.91602006554604 34.989890021351044,32.10494559529625,-324.20396225713193 34.989890021351044,32.10494559529625,-331.90438748244196 34.989890021351044,32.10494559529625,-327.4562143869698 34.99024272851539,32.105252524734325,-332.0586222503334 34.99036718827893,32.105252524734325,-325.21412847656757 34.99071479714708,32.1054790995769,614.5499740811065 34.990880277722454,32.1054790995769,637.9505885150284 34.99207590701597,32.1054790995769,-333.3358721965924 34.99233053870972,32.10550845866877,-20.352374771609902 34.99357564873639,32.10578538104193,207.27276117913425 34.994551417301935,32.10597432796545,-27.03257954865694 34.994552618054435,32.10627043969427,275.649894060567 34.99485310136923,32.10597432796545,-322.27818231098354 34.99534813349021,32.10597432796545,-317.2169775189832 34.99656902557826,32.10549571979462,26.25150423590094 34.99713759361748,32.10552414217673,23.84098105598241 34.997287064858156,32.105643284208774,288.0231594601646 34.99783509825225,32.10552414217673,291.4378104675561 34.99842041996447,32.10549571979462,284.1720555201173 34.99896332516809,32.10549571979462,296.90485500264913 34.99950356072249,32.10549571979462,284.09624561015517 35.00012562652405,32.10552414217673,428.0598535705358 35.00182894460859,32.105643284208774,441.78227232676 35.001913227218616,32.10668577417705,208.63926481921226 35.0023420940314,32.106808900034046,437.80862282123417 35.00275285828456,32.10683026919735,4.980456004850566 35.00324602728029,32.10692520505488,15.17598824761808 35.003803902009764,32.10693210154472,13.369895770214498 35.00421853981748,32.107838713674134,6.040143791586161 35.0043522630181,32.10855148671758,-313.6043523987755 35.00465562334376,32.10861248309702,-308.8453356064856 35.00470014194246,32.110104524765774,193.61921782512218 44.38598193718413,34.06778137865145,-3246317.0348429717 44.38598193718413,34.06778137865145,-2545766.414607665 44.38598193718413,34.06778137865145,-2546237.382240114 44.38598193718413,34.06778137865145,-2546707.023095049 44.38598193718413,34.06778137865145,-2547178.3604169707 35.01047403399092,32.110697039895264,200.76932810619473 35.01047403399092,32.110697039895264,198.06862079631537 35.01047403399092,32.11049487552151,27.92519762646407 35.01047403399092,32.11046269734715,73.26403133198619 35.01047403399092,32.11046269734715,202.28123280312866 35.01105511064301,32.11049487552151,-422.1303164586425 35.01125972123702,32.110697039895264,-265.11497182771564 35.0118717565109,32.1108006578949,70.63667536061257 35.0126052218407,32.111542281352115,-22.619364133104682 35.012633845607525,32.111542281352115,-2033.9786959150806 35.013229017510476,32.1108006578949,250.74578991811723 35.01322966691473,32.1108006578949,-743.1929644113407 35.01577465877631,32.1108006578949,-19.737423971295357 35.016022627062,32.109254044719776,29.694393578916788 35.016022627062,32.10925199508021,-252.4499838463962 35.016386996523934,32.10907983334387,-272.6857132194564 35.017452011922074,32.108867220326196,42.029027324169874 35.01771554002181,32.107817562189,-262.13905888423324 35.01858967452065,32.107453140334954,50.64871422573924 35.018776657929365,32.107303580622336,-253.43716714531183 35.01962547280983,32.107303580622336,33.08703988883644 35.01982435612143,32.107303580622336,56.47944973036647 35.020402873344665,32.107303580622336,40.07903226930648 35.02095328482617,32.10725478361147,-152.396190488711 35.02243200868858,32.10725478361147,734.089173973538 35.02323863259861,32.10753196844446,-1468.492824550718 35.02361301891767,32.10753196844446,-252.37712166458368 35.02401437841282,32.10753196844446,314.6535641523078 35.024502102697724,32.10753196844446,-255.6863603843376 35.024502102697724,32.10729224720367,-242.2351091839373 35.024502102697724,32.10719667222595,-240.56794713716954 35.02466705309324,32.107037396977596,-243.20846159290522 35.02501181319238,32.10700077372657,-256.2476048534736 35.02548316546301,32.106704792396165,822.0969552472234 35.025540757378494,32.106541202950744,567.182381642051 35.02562486372854,32.10621071085844,781.7724737003446 35.02582164345646,32.10591670011171,807.4960702713579 35.02632746610753,32.105561272907046,816.0094108581543 35.02803717616973,32.10518932674403,-230.8546239938587 35.02851380262823,32.10516120913333,-230.24655712023377 35.02903741965631,32.10492145960287,807.8949388274923 35.02912941000825,32.104173696721084,579.922677106224 35.030583685923396,32.103694134461605,-209.7812616545707 35.03086489763343,32.1036436256086,305.3281116504222 35.03162903389648,32.10339828861319,-207.20541622675955 35.03212547822777,32.10315652539902,-211.43923795595765 35.03236851939766,32.102906959697115,-205.10862201079726 35.032483583738745,32.10268443184389,387.7465441664681 35.0325142208343,32.10268443184389,-205.6635629888624 35.0333226627004,32.10268080183386,823.0932158278301 35.03353642355166,32.102288539302684,968.4741298258305 35.03385826618128,32.101675708087,339.3179127695039 35.03647137772039,32.101675708087,356.98606463801116 35.036720694026016,32.10159187223894,960.0802830038592 35.036963645826965,32.10159187223894,-218.54748037829995 35.03718708911593,32.10118293484495,-230.86010430473834 35.03817272235497,32.10159187223894,130.50309831090271 35.038539660494834,32.101675708087,110.13396343402565 35.03876590021074,32.10159187223894,-204.98653648607433 35.038785187916886,32.10159187223894,322.18661503028125 35.039532774859296,32.101703332222534,-186.9469213122502 35.04003878030953,32.10185304647643,-185.6997884688899 35.04102174660605,32.10193419589518,147.82904874626547 35.041188764855605,32.10197972396626,-207.14282147586346 35.041490203498945,32.10197972396626,-201.8860262874514 35.04167375461712,32.10197972396626,-194.67653781268746 35.04194256175877,32.10193419589518,591.9454199364409 35.04292082820495,32.102195465401216,-200.23959658667445 35.04422972298306,32.10237505000907,140.11639776453376 35.04425682365203,32.10239572148108,176.37440902926028 35.044641603145756,32.10239572148108,347.5014312453568 35.044972739496465,32.10239572148108,-165.20721605047584 35.04550110357718,32.10239572148108,-162.053614359349 35.04660460207428,32.10300973513634,177.67751619499177 35.046783827156986,32.103680504889034,-144.50024359859526 35.04978957818488,32.10377525802403,-53.19555467553437 35.049865517635865,32.10380044144017,-2687152.7429763055 44.27779627024381,35.33100597207539,451.56554301828146 45.32827382140331,35.34570475728512,-3228044.4889739645 45.33321172702998,35.3604710235242,-3227846.145699294 45.338246970487944,35.375223106203975,-3227645.9870483372 45.34324717864288,35.375223106203975,-3227445.147028667 45.34821466112815,35.38991862693065,-3227245.987555282 45.353190324532655,35.404630361979464,-3227050.2561140247 45.35814458348546,35.419374744028715,-3226851.6691923086 45.36314859398153,35.433949954263554,-3226664.0824900693 45.368026840377404,35.44872548560821,-3226459.0353930644 45.368026840377404,35.44872548560821,-3226259.9109133473 45.368026840377404,35.44872548560821,-3226061.143159713 45.368026840377404,35.44872548560821,-3225861.9863558724 45.368026840377404,35.44872548560821,-3225652.4403346367 35.05848415166337,32.1021104584184,388.94922930561006 35.05848415166337,32.10200129378176,-156.28853291459382 35.05840122203623,32.10200129378176,-155.00160188041627 35.05840122203623,32.10163005545773,443.1609541606158 35.05840122203623,32.10137445387594,367.6598601490259 35.05848415166337,32.10137445387594,-162.44773907400668 35.05929275494167,32.10123936416714,821.0880887694657 35.06056171671487,32.101079556596844,-152.79612999316305 35.06111405230578,32.101079556596844,-160.54208458494395 35.061706283098204,32.101079556596844,-148.9562626508996 35.06269268561131,32.10083475640741,219.82475252822042 35.06289577301174,32.10083475640741,-144.13911800831556 35.06367487919119,32.10083475640741,436.3448880808428 35.06395215567897,32.10083475640741,-141.0753326062113 35.06419357256983,32.10083475640741,365.6141221234575 45.46698554470689,35.74091918030454,-3222574.7794782044 45.47184242151405,35.75545262869594,-3222387.0622019013 45.47651062926915,35.7700432002721,-3222200.277447065 45.48125831791215,35.784464116370444,-3222022.4711292083 45.485992668616255,35.79906533120238,-3221837.0370640135 45.49067480483215,35.813512062455516,-3221661.0231800335 45.49533711172724,35.828030022031655,-3221481.0042785946 45.49533711172724,35.828030022031655,-3221298.3321670797 45.499935947617104,35.84262384875371,-3221119.577004922 45.504449953714605,35.84262384875371,-3220940.954514463 45.50909466929998,35.85724516473696,-3220758.867119086 45.50909466929998,35.85724516473696,-122.77637018822134 45.50909466929998,35.85724516473696,-3220405.149013323 45.50909466929998,32.09887090976718,-2587230.5052588508 35.076112122479124,32.09796172207373,-3220048.848950889 35.07499367091417,32.09786009143131,-6.8286044877022505 35.07499367091417,32.097779213352965,-116.27567529212683 35.07499367091417,32.09766175036682,-109.66438217554241 35.07499367091417,32.09766175036682,-112.41245345212519 35.07499367091417,32.09766175036682,-87.63035352341831 35.07535719097187,32.09766175036682,-84.75323056150228 35.07535719097187,32.09766175036682,-85.1306547280401 35.0758194581149,32.09751061928058,-79.05043577775359 35.07685130856919,32.0973672313123,-1431.652803344652 35.07734110754101,32.09710103277468,-76.04340454656631 35.077843686006084,32.09695408209974,-73.70990512799472 35.07839339977253,32.09695408209974,-67.52834328450263 35.078882056330386,32.09695408209974,-67.86616374459118 35.078882056330386,32.09695408209974,-73.17337651178241 35.07941095407698,32.09695408209974,-62.131784156896174 44.610916113516446,37.84364230075216,-2612600.120236793 44.61651562376444,37.854629402985715,-3146471.023992906 44.62204001762662,37.86568460223453,-3146428.944756395 44.62756853625201,37.87675721997544,-3146392.436442677 44.63889139252497,37.89878286500987,-3146357.588328548 44.63889139252497,37.87675721997544,-2614973.7250754363 44.64447276025105,37.89878286500987,-3146276.935396015 44.6500221293543,37.909815261921196,-3146242.710968721 44.66118650928218,37.920899175337,-3146205.27501105 44.66667634208158,37.94284861759283,-2590455.0470980126 44.66667634208158,37.94284861759283,-3146138.5047848937 44.66667634208158,37.95392129352063,-3146102.5033619846 44.66667634208158,37.96494753644395,-3146062.59170708 44.66667634208158,37.97599743447458,-3146026.34672127 44.66118650928218,37.9869862016227,-3145983.644149042 44.66667634208158,38.04265248475254,-2630318.7925637076 44.021973771808554,44.230784506885406,-2630651.5383000732 44.021973771808554,44.230784506885406,-2630981.690083312 44.021973771808554,44.23222089682785,-2631312.9394750553 43.987543147187836,44.23222089682785,-3145773.532129612 43.987543147187836,44.230784506885406,-2631978.4730859348 43.987543147187836,38.064868782426224,-3145690.551498781 43.987543147187836,38.04265248475254,-2622981.6029953784 35.09582328990952,32.0966190187009,298.8630801346153 35.09582328990952,32.09601716122436,297.04538816865534 35.09582328990952,32.09231201876805,336.67726025450975 35.09582328990952,32.092213454259884,-254.02283756714314 35.09582328990952,32.092213454259884,523.0637252666056 35.09736315384853,32.092213454259884,687.8669887129217 35.097818998237884,32.09231201876805,291.23525597155094 35.098100993654185,32.09231201876805,683.6486853379756 35.09933904946675,32.09231201876805,-60.21648286655545 35.09935771388376,32.09239179407696,236.92585247475654 35.09989218388312,32.092456217746644,271.2617245679721 35.10032484263753,32.09396552178784,284.96491434890777 35.10053046648688,32.09396552178784,-56.234945649281144 35.100972071668835,32.09404083081476,-59.27040634676814 35.1015708724499,32.09404083081476,-57.544860538095236 35.102185076662735,32.09404083081476,-64.2864696495235 35.10322673623639,32.09404083081476,512.3143949657679 35.103263674738145,32.094064746498915,-75.41557051055133 35.103842491421375,32.09408185786293,458.1205206727609 35.1052797331875,32.09286063448556,268.06806661374867 35.10563627240875,32.09286063448556,271.39081124868244 35.10585242079075,32.09289457402361,-63.11344843823463 35.10616726534173,32.09289457402361,-59.24109347257763 35.107158562443814,32.09343774064529,520.9034958165139 35.10718720850348,32.09343774064529,446.45456374436617 35.10780164479305,32.09380397808567,-66.77752345707268 35.108748901391166,32.09380397808567,278.5213101664558 35.1091511074728,32.09380397808567,452.7276541730389 35.109797319053946,32.09389375783313,519.3156332932413 35.109851453735715,32.095221728624466,456.6279168520123 35.11036129853025,32.096310643148584,-58.75376975629479 35.11088279520399,32.096555971617065,-58.489883203059435 35.11129897950633,32.096831541505196,-56.040688809007406 35.111835398210694,32.09708342697197,-52.95557829644531 35.11229632298728,32.09708342697197,-53.51448048744351 35.11280179894814,32.09732081323663,-58.990245746448636 35.11329970833075,32.09732081323663,-48.38020663801581 35.11379873315028,32.09732081323663,-45.46914618834853 35.114720768024114,32.09760346501167,298.35885291546583 35.115084649603894,32.097821474918554,-42.80378980003297 35.11605343169939,32.098069952236955,291.30238784570247 35.11615234319459,32.09860889490981,532.7699245521799 35.11618245787273,32.09860889490981,-46.847679489292204 35.11667525987373,32.09860889490981,-40.7221550391987 35.11712503619879,32.0981440006437,-38.338350621052086 35.117627249961224,32.09941036711695,-39.15341586153954 35.1194110932747,32.09960631097363,656.2947145896032 35.11948350835276,32.09988802206937,648.3308759601787 35.11989683072116,32.10008020732245,540.8279026476666 35.120154535861815,32.10008020732245,-35.00930034928024 35.12038048197953,32.10107927046282,-30.289065539836884 35.12063891013186,32.10107927046282,-49.129923527128994 35.12080031794265,32.10107927046282,-20.381335728801787 35.12173026325358,32.101333954131825,666.1195215340704 35.12179848081089,32.101516800401356,-28.8620734103024 35.12342687232357,32.10183753914151,654.2608360052109 35.12366498951556,32.10233266090078,652.8777918918058 35.12407592515926,32.1034338315703,921.251076284796 35.12436573005613,32.1034338315703,-16.28795199934393 35.124537343362405,32.10374128086646,-16.080720596946776 35.12485764275678,32.10374128086646,-20.458967334590852 35.12499342746532,32.10384300891737,-17.801355409435928 35.12516163512622,32.10374128086646,486.12492232676595 35.125358705689784,32.10401144067604,-27.837235301733017 35.125795576136454,32.10401144067604,571.2460599076003 35.1267115404036,32.10425371120346,928.3690568404272 35.1274776990815,32.104544183528446,563.7612233441323 35.12756366784238,32.10483203657547,-15.312748577445745 35.12839282392274,32.10588957523083,557.2038238774985 35.12844477725433,32.106090732394215,-23.819158274680376 35.128870684913124,32.10647169012695,497.0799103304744 35.12936317983895,32.10691514050157,-13.569900904782116 35.12982406545054,32.10714508966525,-10.121692239306867 35.130325901137596,32.107369295837344,-4.713519026525319 35.13083720565363,32.10759771514164,-5.890889280475676 35.13132219269468,32.10781943811602,-12.830623821355402 35.13185926314424,32.108039357373166,-14.321849989704788 35.13235185512446,32.10829075964932,-18.274283356964588 35.132817527982105,32.108535707882716,-7.780766656622291 35.13332564823717,32.108747329357286,-13.502932804636657 35.13383421910359,32.10898230015765,-7.699412567541003 35.134342287989824,32.10918819963939,-7.559427283704281 35.13479787138332,32.10940434696179,-4.7348486771807075 35.13525281286129,32.109602419429024,-7.199663023464382 35.1356871773914,32.109602419429024,-17.41226157359779 35.136114259705735,32.109772691819174,-5.482157910242677 35.136543136075254,32.11000325975843,-13.92616708856076 35.137009918906905,32.11019484647845,-6.533706274814904 35.137772471703926,32.11031521207407,691.9423364326358 35.13813030989977,32.11031521207407,-0.8744150623679161 35.13852375000896,32.11031521207407,11.567750131711364 35.13878936857929,32.11031521207407,16.501255054958165 35.13951568022974,32.10927562872447,10.408962507732213 35.13985809803529,32.10930212669445,353.1074433038011 35.14008132913233,32.10927562872447,312.7375188013539 35.14012096656125,32.10924845749785,354.4774120049551 35.14012096656125,32.10924845749785,319.9174958579242 35.140146768131444,32.10924845749785,361.2419476173818 35.14014870090751,32.10927562872447,348.2490572584793 35.14014870090751,32.10930212669445,315.9318469129503 35.14021163113833,32.10931520236338,1037.9791400749236 35.140300238454735,32.109384898958425,354.31830781605095 35.140423512177605,32.10942766543199,364.4922969052568 35.14047470412274,32.110958553589,14.982836689800024 35.140626888348486,32.11098684085808,356.3919842587784 35.140626888348486,32.11098684085808,17.723634977824986 35.140626888348486,32.11104444656311,2.016246283426881 35.140789854159614,32.11109802653476,6.262545220553875 35.14104865657707,32.1112255610801,497.2568198982626 35.14125930511026,32.11123272194613,1180.4770486196503 35.14128967248456,32.11212486856771,1202.5968036316335 35.14268393477588,32.11212486856771,422.30907773785293 35.14301902795321,32.11212486856771,514.0914216646925 35.143434073341844,32.11123272194613,513.4509984189644 35.14392378721291,32.1112255610801,505.59840660728514 35.14478030127185,32.110809305922864,21.83671064209193 35.14523881702322,32.110809305922864,30.66944835241884 35.14564347768739,32.11077107855498,35.02957822661847 35.146676258794486,32.11077107855498,579.1727169882506 35.14676520491354,32.11076920852934,22.261511728167534 35.1471960753109,32.11077107855498,598.5356550365686 35.147791193279204,32.11066501028258,40.49212922900915 35.14806084315795,32.110634612615954,-1447.4559819288552 35.148867619259946,32.110634612615954,32.6820647129789 35.15044895046323,32.110634612615954,1204.3123795548454 35.15074255529858,32.11061085216291,767.7535331416875 35.15155158991752,32.10986011735595,731.5643265824765 35.15155158991752,32.10986011735595,820.0460214260966 35.15203728199701,32.10983086363281,73.14032655209303 35.15259099253144,32.10983086363281,584.9231496313587 35.152623774536046,32.10983086363281,586.2644588947296 35.15309842242918,32.11065295033841,69.0402512345463 35.15324328508412,32.11070210432348,805.4826342863962 35.15419102287947,32.110758021084884,72.31837590876967 35.15473451735875,32.11079732323621,78.8872312605381 35.15528355143017,32.11079732323621,87.04321373067796 35.155857613292596,32.11079732323621,93.40139830019325 35.156458526384,32.11082176077153,88.77683631330729 35.15702285482329,32.11082176077153,90.5084001943469 35.15928644340463,32.11082176077153,90.50233986321837 35.16022368971638,32.11079732323621,178.3901005042717 35.16063022811513,32.11079732323621,107.43277830258012 35.16063022811513,32.11082176077153,202.82815538533032 35.1608460600054,32.109931865547914,103.64717532414943 35.161587695543965,32.10995082909667,649.4163800943643 35.161924842026075,32.10995082909667,671.0291267186403 35.16220769261047,32.10995082909667,1122.5163825480267 35.16220769261047,32.110936520552926,399.66548318136483 35.16253692433851,32.111071349678284,816.8658226951957 35.16253692433851,32.111071349678284,558.6740234708413 35.162600817775605,32.111025193589036,1118.7922470169142 35.16304477438668,32.10995082909667,1114.0032752295956 35.16381250019978,32.10995082909667,107.58653563261032 35.16381250019978,32.10950959159169,109.29100443143398 35.1639300471622,32.10950959159169,621.6331980582327 35.1639300471622,32.10932055845964,617.033598382026 35.164072432172496,32.108858797311676,466.59100543614477 35.16411100502614,32.108858797311676,851.9033656781539 35.16435404034132,32.108858797311676,597.5413032528013 35.16441599715372,32.10932055845964,838.7864567795768 35.16441599715372,32.109353222540726,445.75440881587565 35.16435404034132,32.109353222540726,98.93204679246992 35.16435404034132,32.10932055845964,99.40712095517665 35.16419214992037,32.10932055845964,104.92673859559 35.16419214992037,32.10858853990059,511.2897599088028 35.16404705513452,32.108128523866846,541.6665046373382 35.16399530959645,32.1078213632843,552.564924874343 35.16393064739508,32.10753096538311,514.0963913034648 35.16384477051871,32.10737522160457,833.36744373478 35.16384477051871,32.10737522160457,96.51207316387445 35.16377945138533,32.10737522160457,92.70410429313779 35.16342097075477,32.10737522160457,91.31158408243209 35.163343576418576,32.10737522160457,509.0326583618298 35.1631307700504,32.1070931794973,999.0523299928755 35.16302329827305,32.106512759921344,490.7344300914556 35.16269154144576,32.10645147506648,93.55127643607557 35.16269154144576,32.105988927978366,488.63465828821063 35.162766428994956,32.10589458745891,87.62272894382477 35.16283310948094,32.105603445520615,98.39393545407802 35.16283310948094,32.105603445520615,535.3203532369807 35.16283310948094,32.10513720755416,86.24830350559205 35.16283310948094,32.10491588652778,83.5467651207 35.1628223536715,32.10472150789331,90.18790115974844 35.162766428994956,32.10454810714551,663.7895862953737 35.162766428994956,32.10454810714551,87.55171857122332 35.162766428994956,32.10451001953893,54.707503233104944 35.1628223536715,32.104389446758894,1285.2607319448143 35.1628223536715,32.10415506768667,652.37762659695 35.1628223536715,32.104031850183425,649.0136112887412 35.16171233970186,32.10344954633434,395.03342562448233 35.16171233970186,32.10314050035273,402.0105716623366 35.161825060352804,32.10314050035273,390.04251424595714 35.16233838809676,32.10292502216642,1233.1573661733419 35.162821719243425,32.102493621641365,1256.0990261947736 35.162821719243425,32.102493621641365,1255.0126829165965 35.162821719243425,32.102493621641365,-1557.9383779782802 35.162821719243425,32.102493621641365,1267.486785510555 35.163774562565784,32.10229747028211,1253.4402332557365 35.16465529232077,32.10191591717374,393.19861135445535 35.16473259126628,32.1015562117276,389.9334972053766 35.16473259126628,32.101382609094344,1219.8918894249946 35.166127622075706,32.100544809364806,433.1249069739133 35.16647286624008,32.100544809364806,1276.575109358877 35.16815861071217,32.100573902629385,405.4266432831064 35.16902349829144,32.10061963767806,522.3048588298261 35.169534712740905,32.10061963767806,809.0780081823468 35.169534712740905,32.10061963767806,793.6391370743513 35.16953764987981,32.10061963767806,802.2286747358739 35.16993072724893,32.101647438251106,70.72693060338497 35.16993072724893,32.10165241353735,94.284065624699 35.1699742127405,32.10194979589308,1250.831873753108 35.17083892181011,32.10197735821704,97.44094971660525 35.1708627318455,32.10215412548515,96.3231567023322 35.171236410555345,32.102363534657925,103.97813729010522 35.171613358762215,32.102363534657925,73.05408259294927 35.1720230991303,32.102363534657925,102.97474751155823 35.172312412321226,32.102363534657925,467.16175477206707 35.17258182324071,32.10256382805841,105.55954067129642 35.17270699326277,32.1026284531551,660.8904662476853 35.172765690875494,32.102637397469536,831.6365758050233 35.17336521514272,32.10280843378379,812.0928900549188 35.17355361603041,32.10317126202998,90.87673492729664 35.173799707806424,32.10317126202998,102.31839250680059 35.173799707806424,32.10317126202998,113.38837042078376 35.17406079216821,32.10317126202998,58.425162153318524 35.174330944671986,32.10326636564127,91.63970189262182 35.175494072641676,32.10329140727198,461.074792268686 35.17572436546365,32.10329140727198,849.3726224536076 35.175813249979804,32.103289712125076,839.0340388007462 35.175866540765234,32.103289712125076,132.9893453354016 35.17614071830849,32.103289712125076,103.97209649905562 35.17620966725551,32.10360884545236,844.6634380454198 35.176624045144685,32.10360884545236,450.2109992140904 35.17705458292543,32.10402429446473,597.2170867454261 35.17723029882232,32.10360884545236,628.6819738205522 35.17737915990554,32.10349211543054,760.0060603329912 35.17756084927597,32.10360884545236,453.0326140979305 35.178218202104155,32.10360884545236,204.45063444878906 35.178218202104155,32.10360884545236,885.7538549927995 35.17834354867001,32.10350446603481,788.0524809667841 35.17834354867001,32.10350446603481,734.1607205718756 35.179021860480006,32.10350446603481,737.0793036613613 35.179021860480006,32.10350446603481,183.50389710627496 35.179021860480006,32.10356312698958,791.8511226205155 35.17942183686234,32.10356312698958,635.0456060655415 35.17953732997267,32.10350446603481,699.2358023030683 35.17953732997267,32.10356312698958,787.5614682175219 35.17956272044734,32.10356312698958,792.19071218092 35.179789208273725,32.10356312698958,737.5603539673612 35.181044246943166,32.10315224910314,708.1049992693588 35.181044246943166,32.103892480557086,164.91584169492126 35.181044246943166,32.103892480557086,193.4754565609619 35.18110114545801,32.103892480557086,866.6198385274038 35.1812737456241,32.1039542879605,466.7463636016473 35.18137973134588,32.1039542879605,758.7109305355698 35.18144058864263,32.10417758436633,175.67310904804617 35.18171075806992,32.10435365512956,140.49244631268084 35.18212923270421,32.10449888202557,138.4403884448111 35.182403782366784,32.10471093636808,888.2963525541127 35.182707186074126,32.10449888202557,150.2828408451751 35.18299607417109,32.10449888202557,166.86901330202818 35.183079644995,32.10449888202557,193.80304442625493 35.18348796951797,32.10415562349795,197.17120260186493 35.184934013061714,32.10471093636808,493.5487838508561 35.18522904086393,32.10471093636808,887.7470597168431 35.18540856973847,32.10415562349795,484.1952670440078 35.18572757302387,32.10415562349795,486.36588085256517 35.185762695018695,32.103373233577344,192.10724621079862 35.18601272476807,32.10415562349795,225.41555852163583 35.186048156496966,32.104236743959646,493.16780750546604 35.186652281502205,32.1050817539668,653.4883916024119 35.1870902579407,32.10508353297597,529.9920871704817 35.187121838597065,32.1050817539668,200.85202885698527 35.1874206865081,32.104236743959646,900.1035162722692 35.187427903510844,32.104236743959646,199.31094124540687 35.187874096150004,32.104236743959646,178.53903045784682 35.18847524816103,32.1050817539668,930.9990716492757 35.18847524816103,32.10508353297597,928.7395570771769 35.188783537285126,32.10517521590296,925.7956945886835 35.188873299556384,32.10517521590296,807.7947199465707 35.189126615898,32.104518752488005,810.9275480490178 35.18951249378045,32.104518752488005,1185.1336001837626 35.18968417065446,32.104518752488005,821.5252006659284 35.19014558230358,32.104518752488005,212.02977811452 35.190466274701016,32.104518752488005,218.36997782904655 35.19094799554815,32.104381935243524,214.38074860349298 35.19125667833051,32.104381935243524,566.2738606985658 35.19206438560672,32.10435576568706,208.90548166725785 35.192088771282734,32.104099832041626,803.1422184389085 35.192975435079696,32.104099832041626,209.82414885424078 35.19315168376199,32.104099832041626,-1562.30484983325 35.19370478587739,32.104099832041626,602.3417456867173 35.19370478587739,32.1036993448157,244.7020710017532 35.194572158486,32.1036993448157,-1583.403144158423 35.194572158486,32.1042956654233,451.594482797198 35.19370478587739,32.1042956654233,871.4920498337597 35.19370478587739,32.1042956654233,631.4534519892186 35.194572158486,32.10432843090229,845.046158041805 35.194572158486,32.1042956654233,1344.9776547243819 35.1962232214587,32.10286618770896,1470.2731795273721 35.1962232214587,32.10286618770896,924.6996423853561 35.1966440323712,32.10324630235953,835.3504868727177 35.19667344221921,32.10286618770896,912.049757537432 35.19735356644681,32.10275919082668,240.14922682847828 35.1974034820434,32.10275919082668,554.4244860606268 35.19759554853539,32.10286618770896,175.3616849053651 35.19866622922799,32.10286618770896,933.7842776123434 35.202346083485416,32.10324630235953,661.7618432436138 35.206212383121596,32.10493920429796,-1317.6943066203967 47.22461534813568,38.56747511317419,-2679318.848753888 47.22806932509074,38.57609988686877,-2679488.112406155 47.22806932509074,38.57609988686877,-2679653.121777436 47.23160062024571,38.584684154428835,-2679811.3324737092 47.235156221407884,38.59321716519497,-2679984.802841039 47.235156221407884,38.59321716519497,-2680143.9448579075 47.235156221407884,38.59321716519497,713.55238805525 47.235156221407884,38.59321716519497,-2680493.386417473 35.20378021544986,32.106810572979064,-2680662.0005040704 35.20378021544986,32.105671677558156,717.3306126343086 35.20338849679338,32.10559024234402,700.1523696277291 35.20338849679338,32.10559024234402,1291.6320249717683 35.20338849679338,32.105581001581186,713.9249423174188 35.20338849679338,32.105506045389085,720.7832946591079 35.20344918129764,32.10453392098042,269.41119654569775 35.20378021544986,32.10453392098042,271.58591459225863 35.203949498429076,32.10453392098042,547.4702460151166 35.203949498429076,32.10450095043274,320.9133345428854 35.20418712392766,32.104482544921716,287.2912466842681 35.20432252547613,32.104482544921716,653.2180222021416 35.20443749794352,32.10450095043274,919.9900586502627 35.2043617513649,32.10505091782108,670.4572467319667 35.20458354050075,32.10516823394962,957.991093323566 35.20490407392476,32.10516823394962,-1452.7662970619276 35.20610617851106,32.10516823394962,-1478.4217476239428 35.207838356238724,32.10516823394962,1526.8431972898543 35.207838356238724,32.10516823394962,1633.8618797380477 35.208448867239426,32.10516823394962,999.2302724877372 35.20610617851106,32.10505091782108,-1506.185606142506 35.20610617851106,32.10503355894994,-1752.9738671546802 35.206292465324765,32.10503355894994,636.2198790814728 35.206508808570184,32.103522204459075,607.9392843749374 35.20818343720905,32.1050241935163,1433.1514417910948 35.20818343720905,32.104875145592715,-1807.764171906747 35.20703818749518,32.10449809459706,1502.8937887642533 35.20818343720905,32.10474979209874,1447.8261314593256 35.20818343720905,32.10474979209874,900.4128439724445 35.208291583405405,32.10474979209874,879.7382763409987 35.208291583405405,32.10449809459706,1446.797877598554 35.20847584999983,32.1029150470898,916.5997084919363 35.20916200565071,32.102995189165895,1022.2318877791986 35.20937723211657,32.102994175342246,650.0944764073938 35.2094871151532,32.10269460061441,308.70400728378445 35.20981355874494,32.10269460061441,642.494488558732 35.20981355874494,32.10269460061441,336.9697578912601 35.20975610953112,32.102994175342246,305.61207561567426 35.20975610953112,32.102995189165895,630.4012301564217 35.20981355874494,32.1032382020389,298.8087042849511 35.20981355874494,32.10353771695937,310.8569292202592 35.20989735141617,32.10353771695937,324.644945114851 35.20995533104106,32.10353771695937,337.89030122663826 35.20995533104106,32.10353771695937,347.8450344959274 35.210053078523494,32.10375513616168,305.4261341029778 35.210085802643164,32.10375513616168,915.5695927850902 35.21079491277981,32.104014865790795,985.4773138612509 35.21127139385857,32.1041896082547,1303.3465825878084 35.21154846728711,32.1041896082547,397.9007812216878 35.212087072555974,32.103313967222014,857.5258310912177 35.212087072555974,32.103313967222014,331.47608961351216 35.212392203535515,32.10312584087752,727.4738533366472 35.212392203535515,32.10312584087752,257.94810390658677 35.21272024471989,32.102955271012235,1167.0767934527248 35.21321746068023,32.102955271012235,461.9151673167944 35.21321746068023,32.102955271012235,1302.6525197783485 35.21321746068023,32.10272673312679,799.8296308750287 35.21343616107176,32.10261102822095,833.0161569286138 35.213523712841344,32.10252141219122,959.3435983331874 35.213523712841344,32.10272673312679,127.8892116099596 35.21343616107176,32.10272673312679,705.8006303077564 35.213663893159804,32.10252141219122,1508.2417067121714 35.213663893159804,32.10252141219122,2135.503675835207 35.212884741218474,32.103057294238,-1458.727784242481 35.213663893159804,32.105016344864346,1389.2492589103058 35.213663893159804,32.105016344864346,974.1315316716209 35.212884741218474,32.10623401190068,882.0898132193834 35.21248867636713,32.10762562627798,764.7771397586912 35.21233636686849,32.106926654810074,686.1044610189274 35.21233636686849,32.106926654810074,1403.8873004410416 35.21093657135782,32.106926654810074,907.0709520950913 35.21091707462608,32.106749624745326,740.0805718721822 35.21082220692582,32.10657908208692,250.356853521429 35.21082220692582,32.10657908208692,329.5833427365869 35.21082220692582,32.10657908208692,303.43051750119776 35.21082220692582,32.106484124926055,523.5998635273427 35.21068289375654,32.10408944261002,477.25968048442155 35.21068289375654,32.1025602905459,960.5276232762262 35.21061435194014,32.1025602905459,255.20552534610033 35.20937691921936,32.1025602905459,360.76668248604983 35.21061435194014,32.10408944261002,730.7030076757073 35.21061435194014,32.105636874776316,3996.3187027508393 35.21061435194014,32.105636874776316,671.0476232012734 35.20952092306171,32.105636874776316,1439.334582341835 35.20952092306171,32.10567008911342,-1904.4096276536584 35.20935140689257,32.10570414606902,1348.7837236709893 35.20886133322624,32.105730529541994,2212.514069617726 35.20886133322624,32.105730529541994,226.9663723250851 35.20886133322624,32.10570414606902,220.64461123291403 35.20868046235918,32.10567008911342,471.34779749345034 35.20886133322624,32.10567008911342,463.12600355874747 35.208810284582455,32.10567008911342,322.1944902688265 35.20878767505618,32.10546922867579,379.66300879139453 35.20868046235918,32.10480039701503,692.8067559394985 35.20868046235918,32.10444471663771,663.3089769287035 35.20878767505618,32.10434901196343,231.19944603089243 35.208810284582455,32.10434901196343,308.8584403563291 35.208810284582455,32.10434901196343,329.94789398647845 35.208985597181155,32.10426502082557,1416.5584491016343 35.20947211119185,32.10392348168102,568.7516774879768 35.210282119196926,32.10307770004162,403.2006621006876 35.210409894006624,32.10275561474678,375.72593507822603 35.210409894006624,32.10275561474678,409.1463788887486 35.210282119196926,32.10275561474678,1234.8029084652662 35.210282119196926,32.10275561474678,421.1773191653192 35.21009011117212,32.10426502082557,1230.9291338156909 35.21018611518453,32.10489720253865,210.43858498241752 35.21009011117212,32.10703879033052,207.26318334136158 35.209529195338874,32.10712887364347,259.1093940604478 35.20896827950563,32.107218956956416,211.63122239150107</coordinates></LineString></Placemark></Document></kml>