<?xml version="1.0" encoding="UTF-8"?><kml xmlns="http://www.opengis.net/kml/2.2"><Document><Style id="t"><LineStyle><color>ff00ff00</color><width>4</width></LineStyle></Style><Placemark><styleUrl>#t</styleUrl><LineString><tessellate>1</tessellate><coordinates>34.82996651,32.13373764,-523.297 34.84303004,32.12670315,3637.084 34.85463387,32.11562412,-1216.296 34.86623769,32.10488888,-4429.507 35.02660583,32.10471699,-200.535 35.18697396,32.10454510,72.160 35.19789006,32.10471699,-301.510</coordinates></LineString></Placemark></Document></kml>