<?xml version="1.0" encoding="UTF-8"?>
<kml xmlns="http://www.opengis.net/kml/2.2">
  <Document>
    <name>GNSS Track</name>
    <Style id="trackLineStyle">
      <LineStyle>
        <color>ff00ffff</color>
        <width>3</width>
      </LineStyle>
    </Style>
    <Placemark>
"
            f"      <name>Point 1</name>
"
            f"      <description>2026-03-21 15:14:52</description>
"
            f"      <Point>
"
            f"        <coordinates>34.81396476,32.16764379,-1322.818</coordinates>
"
            f"      </Point>
"
            f"    </Placemark>
    <Placemark>
"
            f"      <name>Point 2</name>
"
            f"      <description>2026-03-21 15:14:54</description>
"
            f"      <Point>
"
            f"        <coordinates>34.81396424,32.16764481,-1325.196</coordinates>
"
            f"      </Point>
"
            f"    </Placemark>
    <Placemark>
"
            f"      <name>Point 3</name>
"
            f"      <description>2026-03-21 15:14:56</description>
"
            f"      <Point>
"
            f"        <coordinates>34.81396382,32.16764393,-1327.263</coordinates>
"
            f"      </Point>
"
            f"    </Placemark>
    <Placemark>
"
            f"      <name>Point 4</name>
"
            f"      <description>2026-03-21 15:14:58</description>
"
            f"      <Point>
"
            f"        <coordinates>34.81396348,32.16763965,-1331.422</coordinates>
"
            f"      </Point>
"
            f"    </Placemark>
    <Placemark>
"
            f"      <name>Point 5</name>
"
            f"      <description>2026-03-21 15:15:00</description>
"
            f"      <Point>
"
            f"        <coordinates>34.81396476,32.16762749,-1334.959</coordinates>
"
            f"      </Point>
"
            f"    </Placemark>
    <Placemark>
"
            f"      <name>Point 6</name>
"
            f"      <description>2026-03-21 15:15:02</description>
"
            f"      <Point>
"
            f"        <coordinates>34.81396780,32.16760374,-1337.003</coordinates>
"
            f"      </Point>
"
            f"    </Placemark>
    <Placemark>
"
            f"      <name>Point 7</name>
"
            f"      <description>2026-03-21 15:15:04</description>
"
            f"      <Point>
"
            f"        <coordinates>34.81396725,32.16755950,-1336.100</coordinates>
"
            f"      </Point>
"
            f"    </Placemark>
    <Placemark>
"
            f"      <name>Point 8</name>
"
            f"      <description>2026-03-21 15:15:06</description>
"
            f"      <Point>
"
            f"        <coordinates>34.81396026,32.16748932,-1331.288</coordinates>
"
            f"      </Point>
"
            f"    </Placemark>
    <Placemark>
"
            f"      <name>Point 9</name>
"
            f"      <description>2026-03-21 15:15:08</description>
"
            f"      <Point>
"
            f"        <coordinates>34.81394419,32.16738972,-1321.294</coordinates>
"
            f"      </Point>
"
            f"    </Placemark>
    <Placemark>
"
            f"      <name>Point 10</name>
"
            f"      <description>2026-03-21 15:15:10</description>
"
            f"      <Point>
"
            f"        <coordinates>34.81391627,32.16725860,-1305.748</coordinates>
"
            f"      </Point>
"
            f"    </Placemark>
    <Placemark>
"
            f"      <name>Point 11</name>
"
            f"      <description>2026-03-21 15:15:12</description>
"
            f"      <Point>
"
            f"        <coordinates>34.81387502,32.16709562,-1284.548</coordinates>
"
            f"      </Point>
"
            f"    </Placemark>
    <Placemark>
"
            f"      <name>Point 12</name>
"
            f"      <description>2026-03-21 15:15:14</description>
"
            f"      <Point>
"
            f"        <coordinates>34.81382472,32.16690852,-1258.805</coordinates>
"
            f"      </Point>
"
            f"    </Placemark>
    <Placemark>
"
            f"      <name>Point 13</name>
"
            f"      <description>2026-03-21 15:15:16</description>
"
            f"      <Point>
"
            f"        <coordinates>34.81376941,32.16670387,-1229.690</coordinates>
"
            f"      </Point>
"
            f"    </Placemark>
    <Placemark>
"
            f"      <name>Point 14</name>
"
            f"      <description>2026-03-21 15:15:18</description>
"
            f"      <Point>
"
            f"        <coordinates>34.81371173,32.16648750,-1198.540</coordinates>
"
            f"      </Point>
"
            f"    </Placemark>
    <Placemark>
"
            f"      <name>Point 15</name>
"
            f"      <description>2026-03-21 15:15:20</description>
"
            f"      <Point>
"
            f"        <coordinates>34.81365176,32.16626644,-1166.839</coordinates>
"
            f"      </Point>
"
            f"    </Placemark>
    <Placemark>
"
            f"      <name>Point 16</name>
"
            f"      <description>2026-03-21 15:15:22</description>
"
            f"      <Point>
"
            f"        <coordinates>34.81359506,32.16603339,-1137.901</coordinates>
"
            f"      </Point>
"
            f"    </Placemark>
    <Placemark>
"
            f"      <name>Point 17</name>
"
            f"      <description>2026-03-21 15:15:24</description>
"
            f"      <Point>
"
            f"        <coordinates>34.81354727,32.16577958,-1113.959</coordinates>
"
            f"      </Point>
"
            f"    </Placemark>
    <Placemark>
"
            f"      <name>Point 18</name>
"
            f"      <description>2026-03-21 15:15:26</description>
"
            f"      <Point>
"
            f"        <coordinates>34.81351081,32.16549765,-1096.733</coordinates>
"
            f"      </Point>
"
            f"    </Placemark>
    <Placemark>
"
            f"      <name>Point 19</name>
"
            f"      <description>2026-03-21 15:15:28</description>
"
            f"      <Point>
"
            f"        <coordinates>34.81348816,32.16518184,-1087.244</coordinates>
"
            f"      </Point>
"
            f"    </Placemark>
    <Placemark>
"
            f"      <name>Point 20</name>
"
            f"      <description>2026-03-21 15:15:30</description>
"
            f"      <Point>
"
            f"        <coordinates>34.81348321,32.16482542,-1086.005</coordinates>
"
            f"      </Point>
"
            f"    </Placemark>
    <Placemark>
"
            f"      <name>Point 21</name>
"
            f"      <description>2026-03-21 15:15:32</description>
"
            f"      <Point>
"
            f"        <coordinates>34.81349581,32.16442566,-1094.836</coordinates>
"
            f"      </Point>
"
            f"    </Placemark>
    <Placemark>
"
            f"      <name>Point 22</name>
"
            f"      <description>2026-03-21 15:15:34</description>
"
            f"      <Point>
"
            f"        <coordinates>34.81351223,32.16401992,-1107.060</coordinates>
"
            f"      </Point>
"
            f"    </Placemark>
    <Placemark>
"
            f"      <name>Point 23</name>
"
            f"      <description>2026-03-21 15:15:36</description>
"
            f"      <Point>
"
            f"        <coordinates>34.81353777,32.16360069,-1126.015</coordinates>
"
            f"      </Point>
"
            f"    </Placemark>
    <Placemark>
"
            f"      <name>Point 24</name>
"
            f"      <description>2026-03-21 15:15:38</description>
"
            f"      <Point>
"
            f"        <coordinates>34.81357154,32.16318480,-1151.011</coordinates>
"
            f"      </Point>
"
            f"    </Placemark>
    <Placemark>
"
            f"      <name>Point 25</name>
"
            f"      <description>2026-03-21 15:15:40</description>
"
            f"      <Point>
"
            f"        <coordinates>34.81361405,32.16278527,-1181.460</coordinates>
"
            f"      </Point>
"
            f"    </Placemark>
    <Placemark>
"
            f"      <name>Point 26</name>
"
            f"      <description>2026-03-21 15:15:42</description>
"
            f"      <Point>
"
            f"        <coordinates>34.81366434,32.16242033,-1215.577</coordinates>
"
            f"      </Point>
"
            f"    </Placemark>
    <Placemark>
"
            f"      <name>Point 27</name>
"
            f"      <description>2026-03-21 15:15:44</description>
"
            f"      <Point>
"
            f"        <coordinates>34.81372179,32.16210438,-1251.954</coordinates>
"
            f"      </Point>
"
            f"    </Placemark>
    <Placemark>
"
            f"      <name>Point 28</name>
"
            f"      <description>2026-03-21 15:15:46</description>
"
            f"      <Point>
"
            f"        <coordinates>34.81378356,32.16184762,-1288.856</coordinates>
"
            f"      </Point>
"
            f"    </Placemark>
    <Placemark>
"
            f"      <name>Point 29</name>
"
            f"      <description>2026-03-21 15:15:48</description>
"
            f"      <Point>
"
            f"        <coordinates>34.81384784,32.16162070,-1325.922</coordinates>
"
            f"      </Point>
"
            f"    </Placemark>
    <Placemark>
"
            f"      <name>Point 30</name>
"
            f"      <description>2026-03-21 15:15:50</description>
"
            f"      <Point>
"
            f"        <coordinates>34.81391508,32.16148237,-1361.629</coordinates>
"
            f"      </Point>
"
            f"    </Placemark>
    <Placemark>
"
            f"      <name>Point 31</name>
"
            f"      <description>2026-03-21 15:15:52</description>
"
            f"      <Point>
"
            f"        <coordinates>34.81398199,32.16138440,-1395.312</coordinates>
"
            f"      </Point>
"
            f"    </Placemark>
    <Placemark>
"
            f"      <name>Point 32</name>
"
            f"      <description>2026-03-21 15:15:54</description>
"
            f"      <Point>
"
            f"        <coordinates>34.81404722,32.16131545,-1426.057</coordinates>
"
            f"      </Point>
"
            f"    </Placemark>
    <Placemark>
"
            f"      <name>Point 33</name>
"
            f"      <description>2026-03-21 15:15:56</description>
"
            f"      <Point>
"
            f"        <coordinates>34.81411001,32.16126628,-1453.087</coordinates>
"
            f"      </Point>
"
            f"    </Placemark>
    <Placemark>
"
            f"      <name>Point 34</name>
"
            f"      <description>2026-03-21 15:15:58</description>
"
            f"      <Point>
"
            f"        <coordinates>34.81416908,32.16122935,-1475.904</coordinates>
"
            f"      </Point>
"
            f"    </Placemark>
    <Placemark>
"
            f"      <name>Point 35</name>
"
            f"      <description>2026-03-21 15:16:00</description>
"
            f"      <Point>
"
            f"        <coordinates>34.81422092,32.16119939,-1494.248</coordinates>
"
            f"      </Point>
"
            f"    </Placemark>
    <Placemark>
"
            f"      <name>Point 36</name>
"
            f"      <description>2026-03-21 15:16:02</description>
"
            f"      <Point>
"
            f"        <coordinates>34.81426851,32.16117516,-1509.071</coordinates>
"
            f"      </Point>
"
            f"    </Placemark>
    <Placemark>
"
            f"      <name>Point 37</name>
"
            f"      <description>2026-03-21 15:16:04</description>
"
            f"      <Point>
"
            f"        <coordinates>34.81431377,32.16115548,-1521.144</coordinates>
"
            f"      </Point>
"
            f"    </Placemark>
    <Placemark>
"
            f"      <name>Point 38</name>
"
            f"      <description>2026-03-21 15:16:06</description>
"
            f"      <Point>
"
            f"        <coordinates>34.81435782,32.16113970,-1531.186</coordinates>
"
            f"      </Point>
"
            f"    </Placemark>
    <Placemark>
"
            f"      <name>Point 39</name>
"
            f"      <description>2026-03-21 15:16:08</description>
"
            f"      <Point>
"
            f"        <coordinates>34.81440155,32.16112729,-1539.730</coordinates>
"
            f"      </Point>
"
            f"    </Placemark>
    <Placemark>
"
            f"      <name>Point 40</name>
"
            f"      <description>2026-03-21 15:16:10</description>
"
            f"      <Point>
"
            f"        <coordinates>34.81444520,32.16111797,-1547.229</coordinates>
"
            f"      </Point>
"
            f"    </Placemark>
    <Placemark>
"
            f"      <name>Point 41</name>
"
            f"      <description>2026-03-21 15:16:12</description>
"
            f"      <Point>
"
            f"        <coordinates>34.81448818,32.16111107,-1553.944</coordinates>
"
            f"      </Point>
"
            f"    </Placemark>
    <Placemark>
"
            f"      <name>Point 42</name>
"
            f"      <description>2026-03-21 15:16:14</description>
"
            f"      <Point>
"
            f"        <coordinates>34.81452991,32.16110609,-1560.119</coordinates>
"
            f"      </Point>
"
            f"    </Placemark>
    <Placemark>
"
            f"      <name>Point 43</name>
"
            f"      <description>2026-03-21 15:16:16</description>
"
            f"      <Point>
"
            f"        <coordinates>34.81457033,32.16110283,-1565.859</coordinates>
"
            f"      </Point>
"
            f"    </Placemark>
    <Placemark>
"
            f"      <name>Point 44</name>
"
            f"      <description>2026-03-21 15:16:18</description>
"
            f"      <Point>
"
            f"        <coordinates>34.81460947,32.16110151,-1571.281</coordinates>
"
            f"      </Point>
"
            f"    </Placemark>
    <Placemark>
"
            f"      <name>Point 45</name>
"
            f"      <description>2026-03-21 15:16:20</description>
"
            f"      <Point>
"
            f"        <coordinates>34.81464708,32.16110193,-1576.390</coordinates>
"
            f"      </Point>
"
            f"    </Placemark>
    <Placemark>
"
            f"      <name>Point 46</name>
"
            f"      <description>2026-03-21 15:16:22</description>
"
            f"      <Point>
"
            f"        <coordinates>34.81467689,32.16110167,-1581.952</coordinates>
"
            f"      </Point>
"
            f"    </Placemark>
    <Placemark>
"
            f"      <name>Point 47</name>
"
            f"      <description>2026-03-21 15:16:24</description>
"
            f"      <Point>
"
            f"        <coordinates>34.81469991,32.16110125,-1587.801</coordinates>
"
            f"      </Point>
"
            f"    </Placemark>
    <Placemark>
"
            f"      <name>Point 48</name>
"
            f"      <description>2026-03-21 15:16:26</description>
"
            f"      <Point>
"
            f"        <coordinates>34.81471678,32.16110076,-1593.834</coordinates>
"
            f"      </Point>
"
            f"    </Placemark>
    <Placemark>
"
            f"      <name>Point 49</name>
"
            f"      <description>2026-03-21 15:16:28</description>
"
            f"      <Point>
"
            f"        <coordinates>34.81472801,32.16110011,-1599.951</coordinates>
"
            f"      </Point>
"
            f"    </Placemark>
    <Placemark>
"
            f"      <name>Point 50</name>
"
            f"      <description>2026-03-21 15:16:30</description>
"
            f"      <Point>
"
            f"        <coordinates>34.81473451,32.16109960,-1606.133</coordinates>
"
            f"      </Point>
"
            f"    </Placemark>
    <Placemark>
"
            f"      <name>Point 51</name>
"
            f"      <description>2026-03-21 15:16:32</description>
"
            f"      <Point>
"
            f"        <coordinates>34.81474343,32.16110193,-1611.608</coordinates>
"
            f"      </Point>
"
            f"    </Placemark>
    <Placemark>
"
            f"      <name>Point 52</name>
"
            f"      <description>2026-03-21 15:16:34</description>
"
            f"      <Point>
"
            f"        <coordinates>34.81475423,32.16110650,-1616.478</coordinates>
"
            f"      </Point>
"
            f"    </Placemark>
    <Placemark>
"
            f"      <name>Point 53</name>
"
            f"      <description>2026-03-21 15:16:36</description>
"
            f"      <Point>
"
            f"        <coordinates>34.81476608,32.16111255,-1620.799</coordinates>
"
            f"      </Point>
"
            f"    </Placemark>
    <Placemark>
"
            f"      <name>Point 54</name>
"
            f"      <description>2026-03-21 15:16:38</description>
"
            f"      <Point>
"
            f"        <coordinates>34.81478223,32.16115847,-1621.561</coordinates>
"
            f"      </Point>
"
            f"    </Placemark>
    <Placemark>
"
            f"      <name>Point 55</name>
"
            f"      <description>2026-03-21 15:16:40</description>
"
            f"      <Point>
"
            f"        <coordinates>34.81480215,32.16121055,-1620.780</coordinates>
"
            f"      </Point>
"
            f"    </Placemark>
    <Placemark>
"
            f"      <name>Point 56</name>
"
            f"      <description>2026-03-21 15:16:42</description>
"
            f"      <Point>
"
            f"        <coordinates>34.81482492,32.16126946,-1618.511</coordinates>
"
            f"      </Point>
"
            f"    </Placemark>
    <Placemark>
"
            f"      <name>Point 57</name>
"
            f"      <description>2026-03-21 15:16:44</description>
"
            f"      <Point>
"
            f"        <coordinates>34.81485005,32.16133710,-1614.745</coordinates>
"
            f"      </Point>
"
            f"    </Placemark>
    <Placemark>
"
            f"      <name>Point 58</name>
"
            f"      <description>2026-03-21 15:16:46</description>
"
            f"      <Point>
"
            f"        <coordinates>34.81487748,32.16141681,-1609.341</coordinates>
"
            f"      </Point>
"
            f"    </Placemark>
    <Placemark>
"
            f"      <name>Point 59</name>
"
            f"      <description>2026-03-21 15:16:48</description>
"
            f"      <Point>
"
            f"        <coordinates>34.81489132,32.16143880,-1607.691</coordinates>
"
            f"      </Point>
"
            f"    </Placemark>
    <Placemark>
"
            f"      <name>Point 60</name>
"
            f"      <description>2026-03-21 15:16:50</description>
"
            f"      <Point>
"
            f"        <coordinates>34.81490433,32.16146343,-1605.885</coordinates>
"
            f"      </Point>
"
            f"    </Placemark>
    <Placemark>
      <name>Track</name>
      <styleUrl>#trackLineStyle</styleUrl>
      <LineString>
        <tessellate>1</tessellate>
        <coordinates>34.81396476,32.16764379,-1322.818 34.81396424,32.16764481,-1325.196 34.81396382,32.16764393,-1327.263 34.81396348,32.16763965,-1331.422 34.81396476,32.16762749,-1334.959 34.81396780,32.16760374,-1337.003 34.81396725,32.16755950,-1336.100 34.81396026,32.16748932,-1331.288 34.81394419,32.16738972,-1321.294 34.81391627,32.16725860,-1305.748 34.81387502,32.16709562,-1284.548 34.81382472,32.16690852,-1258.805 34.81376941,32.16670387,-1229.690 34.81371173,32.16648750,-1198.540 34.81365176,32.16626644,-1166.839 34.81359506,32.16603339,-1137.901 34.81354727,32.16577958,-1113.959 34.81351081,32.16549765,-1096.733 34.81348816,32.16518184,-1087.244 34.81348321,32.16482542,-1086.005 34.81349581,32.16442566,-1094.836 34.81351223,32.16401992,-1107.060 34.81353777,32.16360069,-1126.015 34.81357154,32.16318480,-1151.011 34.81361405,32.16278527,-1181.460 34.81366434,32.16242033,-1215.577 34.81372179,32.16210438,-1251.954 34.81378356,32.16184762,-1288.856 34.81384784,32.16162070,-1325.922 34.81391508,32.16148237,-1361.629 34.81398199,32.16138440,-1395.312 34.81404722,32.16131545,-1426.057 34.81411001,32.16126628,-1453.087 34.81416908,32.16122935,-1475.904 34.81422092,32.16119939,-1494.248 34.81426851,32.16117516,-1509.071 34.81431377,32.16115548,-1521.144 34.81435782,32.16113970,-1531.186 34.81440155,32.16112729,-1539.730 34.81444520,32.16111797,-1547.229 34.81448818,32.16111107,-1553.944 34.81452991,32.16110609,-1560.119 34.81457033,32.16110283,-1565.859 34.81460947,32.16110151,-1571.281 34.81464708,32.16110193,-1576.390 34.81467689,32.16110167,-1581.952 34.81469991,32.16110125,-1587.801 34.81471678,32.16110076,-1593.834 34.81472801,32.16110011,-1599.951 34.81473451,32.16109960,-1606.133 34.81474343,32.16110193,-1611.608 34.81475423,32.16110650,-1616.478 34.81476608,32.16111255,-1620.799 34.81478223,32.16115847,-1621.561 34.81480215,32.16121055,-1620.780 34.81482492,32.16126946,-1618.511 34.81485005,32.16133710,-1614.745 34.81487748,32.16141681,-1609.341 34.81489132,32.16143880,-1607.691 34.81490433,32.16146343,-1605.885</coordinates>
      </LineString>
    </Placemark>
  </Document>
</kml>
