<?xml version="1.0" encoding="UTF-8"?><kml xmlns="http://www.opengis.net/kml/2.2"><Document><Placemark><LineString><tessellate>1</tessellate><coordinates>nan,nan,nan nan,nan,nan nan,nan,nan nan,nan,nan nan,nan,nan nan,nan,nan nan,nan,nan nan,nan,nan nan,nan,nan nan,nan,nan nan,nan,nan nan,nan,nan nan,nan,nan nan,nan,nan nan,nan,nan nan,nan,nan nan,nan,nan nan,nan,nan nan,nan,nan nan,nan,nan nan,nan,nan nan,nan,nan nan,nan,nan nan,nan,nan nan,nan,nan nan,nan,nan nan,nan,nan nan,nan,nan nan,nan,nan nan,nan,nan nan,nan,nan nan,nan,nan nan,nan,nan nan,nan,nan nan,nan,nan nan,nan,nan nan,nan,nan nan,nan,nan nan,nan,nan nan,nan,nan nan,nan,nan nan,nan,nan nan,nan,nan nan,nan,nan nan,nan,nan nan,nan,nan nan,nan,nan nan,nan,nan nan,nan,nan nan,nan,nan nan,nan,nan nan,nan,nan nan,nan,nan nan,nan,nan nan,nan,nan nan,nan,nan nan,nan,nan nan,nan,nan nan,nan,nan nan,nan,nan nan,nan,nan nan,nan,nan nan,nan,nan nan,nan,nan nan,nan,nan nan,nan,nan nan,nan,nan nan,nan,nan nan,nan,nan nan,nan,nan nan,nan,nan nan,nan,nan nan,nan,nan nan,nan,nan nan,nan,nan nan,nan,nan nan,nan,nan nan,nan,nan nan,nan,nan nan,nan,nan nan,nan,nan nan,nan,nan nan,nan,nan nan,nan,nan nan,nan,nan nan,nan,nan nan,nan,nan nan,nan,nan nan,nan,nan nan,nan,nan nan,nan,nan nan,nan,nan nan,nan,nan nan,nan,nan nan,nan,nan nan,nan,nan nan,nan,nan nan,nan,nan nan,nan,nan nan,nan,nan nan,nan,nan nan,nan,nan nan,nan,nan nan,nan,nan nan,nan,nan nan,nan,nan nan,nan,nan nan,nan,nan nan,nan,nan nan,nan,nan nan,nan,nan nan,nan,nan nan,nan,nan nan,nan,nan nan,nan,nan nan,nan,nan nan,nan,nan nan,nan,nan nan,nan,nan nan,nan,nan nan,nan,nan nan,nan,nan nan,nan,nan nan,nan,nan nan,nan,nan nan,nan,nan nan,nan,nan nan,nan,nan nan,nan,nan nan,nan,nan nan,nan,nan nan,nan,nan nan,nan,nan nan,nan,nan nan,nan,nan nan,nan,nan nan,nan,nan nan,nan,nan nan,nan,nan nan,nan,nan nan,nan,nan nan,nan,nan nan,nan,nan nan,nan,nan nan,nan,nan nan,nan,nan nan,nan,nan nan,nan,nan nan,nan,nan nan,nan,nan nan,nan,nan nan,nan,nan nan,nan,nan nan,nan,nan nan,nan,nan nan,nan,nan nan,nan,nan nan,nan,nan nan,nan,nan nan,nan,nan nan,nan,nan nan,nan,nan nan,nan,nan nan,nan,nan nan,nan,nan nan,nan,nan nan,nan,nan nan,nan,nan nan,nan,nan nan,nan,nan nan,nan,nan nan,nan,nan nan,nan,nan nan,nan,nan nan,nan,nan nan,nan,nan nan,nan,nan nan,nan,nan nan,nan,nan nan,nan,nan nan,nan,nan nan,nan,nan nan,nan,nan nan,nan,nan nan,nan,nan nan,nan,nan nan,nan,nan nan,nan,nan nan,nan,nan nan,nan,nan nan,nan,nan nan,nan,nan nan,nan,nan nan,nan,nan nan,nan,nan nan,nan,nan nan,nan,nan nan,nan,nan nan,nan,nan nan,nan,nan nan,nan,nan nan,nan,nan nan,nan,nan nan,nan,nan nan,nan,nan nan,nan,nan nan,nan,nan nan,nan,nan nan,nan,nan nan,nan,nan nan,nan,nan nan,nan,nan nan,nan,nan nan,nan,nan nan,nan,nan nan,nan,nan nan,nan,nan nan,nan,nan nan,nan,nan nan,nan,nan nan,nan,nan nan,nan,nan nan,nan,nan nan,nan,nan nan,nan,nan nan,nan,nan nan,nan,nan nan,nan,nan nan,nan,nan nan,nan,nan nan,nan,nan nan,nan,nan nan,nan,nan nan,nan,nan nan,nan,nan nan,nan,nan nan,nan,nan nan,nan,nan nan,nan,nan nan,nan,nan nan,nan,nan nan,nan,nan nan,nan,nan nan,nan,nan nan,nan,nan nan,nan,nan nan,nan,nan nan,nan,nan nan,nan,nan nan,nan,nan nan,nan,nan nan,nan,nan nan,nan,nan nan,nan,nan nan,nan,nan nan,nan,nan nan,nan,nan nan,nan,nan nan,nan,nan</coordinates></LineString></Placemark></Document></kml>