<?xml version="1.0" encoding="UTF-8"?><kml xmlns="http://www.opengis.net/kml/2.2"><Document><Style id="t"><LineStyle><color>ff00ff00</color><width>4</width></LineStyle></Style><Placemark><styleUrl>#t</styleUrl><LineString><tessellate>1</tessellate><coordinates>34.81235649,32.16831410,-0.947 34.81227264,32.16823415,0.974 34.81221367,32.16809437,4.239 34.81203880,32.16783786,7.244 34.81178530,32.16754686,17.124 34.81148719,32.16722091,35.037 34.81100034,32.16675192,80.349 34.81039743,32.16599137,116.801 34.80961980,32.16487048,163.256 34.80896706,32.16377436,201.880 34.80835449,32.16269564,239.090 34.80791812,32.16166113,270.320 34.80756297,32.16088011,320.601 34.80745115,32.16046153,357.152 34.80732127,32.15975695,380.384 34.80719041,32.15847437,349.218 34.80737621,32.15692985,289.210 34.80757861,32.15487073,176.288 34.80779407,32.15269569,56.310 34.80874277,32.15055987,-12.670 34.81258101,32.14571125,-46.819 34.81769752,32.13979104,-67.788 34.82342316,32.13419583,-28.753 34.82992070,32.12893914,-12.928 34.83783668,32.12447026,-132.017 34.84522833,32.12258310,-119.235 34.85118061,32.12212858,-108.186 34.85667331,32.12196032,-117.093 34.86153939,32.12158990,-81.813 34.86436598,32.12067089,52.991 34.86493577,32.12052019,66.442 34.86552545,32.12036158,78.438 34.86960304,32.12092148,-30.005 34.89118831,32.11961668,143.666 34.91347183,32.11737850,168.218 34.93593550,32.11522362,163.316 34.96242976,32.11190023,368.706 34.98872991,32.10915724,471.585 34.99840241,32.10845206,261.620 35.01308523,32.10698145,291.420 35.03648848,32.10484221,454.161 35.05774099,32.10401478,385.052 35.07788684,32.10172423,580.501 35.10183299,32.10004745,692.719 35.12484942,32.09977560,746.710 35.13927000,32.09999739,688.293 35.15228116,32.10046233,586.891 35.16558332,32.10129847,439.078 35.17456875,32.10143581,389.558 35.18040824,32.10161091,365.787 35.18616523,32.10210951,328.029 35.19164187,32.10223057,338.948 35.19503139,32.10246637,297.267 35.19835839,32.10252965,286.082 35.20090646,32.10312695,180.504 35.20323305,32.10353493,108.393 35.20534702,32.10397537,53.471 35.20702196,32.10409794,57.046 35.20830054,32.10438093,28.109 35.20869147,32.10450952,33.174 35.20930983,32.10475309,39.116 35.21017787,32.10513864,54.357 35.21061209,32.10538685,59.479 35.21100007,32.10562731,70.133 35.21154987,32.10588030,90.849</coordinates></LineString></Placemark></Document></kml>