<?xml version="1.0" encoding="UTF-8"?>
<kml xmlns="http://www.opengis.net/kml/2.2" xmlns:gx="http://www.google.com/kml/ext/2.2">
    <Document id="1">
        <Style id="4">
            <LineStyle id="5">
                <color>ffff0000</color>
                <colorMode>normal</colorMode>
                <width>4</width>
            </LineStyle>
        </Style>
        <Placemark id="3">
            <name>Final Smooth Route</name>
            <styleUrl>#4</styleUrl>
            <LineString id="2">
                <coordinates>34.81640231016869,32.17041766232975,-4555.681646554731 34.81644242635029,32.17046245693552,-4570.41263997741 34.81640231016869,32.17041766232975,-4555.681646554731 34.81636219421161,32.17037286791881,-4540.950647010468 34.81225879352792,32.16591977739218,-2829.3106024228036 34.815451171585494,32.167580636180055,-1811.5096978507936 34.81332139690461,32.16612858059896,-353.7403086172417 34.813299614073735,32.16606428198504,-336.4857252044603 34.813299614073735,32.16606428198504,-336.4857252044603 34.813136780475595,32.166048915320424,-296.9398263115436 34.813299614073735,32.16606428198504,-336.4857252044603 34.81332139690461,32.16612858059896,-353.7403086172417 34.814416501457615,32.16811068679972,-994.2778826467693 34.8144084171481,32.168125722014665,-996.9282874511555 34.81600489019845,32.16926991565253,-1198.618769359775 34.81600489019845,32.169286265174954,-1197.4786377567798 34.81600489019845,32.169286265174954,-1197.4786377567798 34.81600489019845,32.169546160579856,-1179.3547441344708 34.81577078587766,32.16922166517213,-1076.3251243438572 34.81497153096247,32.16791582633266,-680.1417067740113 34.81253487660749,32.167455608059186,-185.68030996341258 34.81358385582234,32.167259129369285,-85.04676534701139 34.81362878232187,32.16833058233109,-6.838943418115377 34.81334253702555,32.16811806135614,74.10000108368695 34.81439699164132,32.16843273310939,211.0245141638443 34.81438134818152,32.16841220240754,215.26453068107367 34.81438134818152,32.16841923478257,215.75502502452582 34.814391868860916,32.16843191765966,211.78850905690342 34.814396393218054,32.168435442180375,211.16709672566503 34.814396393218054,32.168435442180375,211.16709672566503 34.81400004539207,32.168809644060275,-37.666038694791496 34.81400004539207,32.168809644060275,-37.666038694791496 34.81400004539207,32.168809644060275,-37.666038694791496 34.81396233398122,32.16881177994105,-43.63307498302311 34.813958807248476,32.16877738232607,-46.305437410250306 34.81394334973712,32.16872780708809,-47.7667662454769 34.81324072202632,32.16831168699244,35.79869466088712 34.81295290841398,32.16758262137246,-37.34943960607052 34.81347296742107,32.16717935035406,-227.9871802609414 34.81347296742107,32.16717935035406,-227.9871802609414 34.81284625811434,32.167513165423834,-25.103630248457193 34.81253642017126,32.16758930369971,44.96996663976461 34.812951517244684,32.1677436706855,112.4717490952462 34.81253642017126,32.16758930369971,44.96996663976461 34.812955315300535,32.16784234476665,95.0742725469172 34.812955315300535,32.16904609460409,179.0325153497979 34.81307249796466,32.168035213674216,61.06939690001309 34.81346424905441,32.16829034045233,16.088453121483326 34.813320553600555,32.168381262749314,0.058290272019803524 34.8133762607785,32.16863997812322,9.176107446663082 34.8133762607785,32.16863997812322,9.176107446663082 34.8133762607785,32.16863997812322,9.176107446663082 34.8133762607785,32.16863997812322,9.176107446663082 34.8133762607785,32.16863997812322,9.176107446663082 34.81340050884192,32.168743494441905,18.274788489565253 34.81301307994942,32.16918251868587,110.97845838125795 34.81293453523599,32.169207252260264,106.61785171646625 34.81271924797208,32.16897454053044,170.1077262442559 34.81271924797208,32.16897578788856,170.19472829438746 34.8129085037146,32.169215449521005,105.17265054117888 34.81266744836358,32.16894291543159,176.20271679013968 34.81261764166073,32.1689277977796,183.12974887434393 34.81260099825468,32.168936024773046,186.9170036977157 34.81260099825468,32.168936024773046,186.9170036977157 34.81251271689052,32.16890562993939,202.10145696811378 34.812513419989514,32.168905408539786,202.1404914194718 34.812513419989514,32.168905408539786,202.1404914194718 34.81310735302477,32.16872068070107,229.2154799932614 34.81264027422797,32.16867095848311,165.45957860909402 34.81271552987151,32.168734892590976,154.18749066907912 34.81271552987151,32.168726476367375,153.60047410894185 34.81271552987151,32.168726476367375,153.60047410894185 34.81302410569477,32.168962533065,111.98221910558641 34.81306042724971,32.16899838587321,117.2971490509808 34.813036967463496,32.169018199834184,113.8038567956537 34.81306042724971,32.16899838587321,117.2971490509808 34.81315566295098,32.1689850862199,112.88436983898282 34.813166448021065,32.16898174264121,113.48680827394128 34.813166448021065,32.16898174264121,113.48680827394128 34.81328535545977,32.168944298718145,120.0883565703407 34.81328535545977,32.168944246088,120.08468570094556 34.8133790021177,32.16875662349535,153.17667088843882 34.81355804723284,32.168570098543775,205.36428743321449 34.81355804723284,32.16857588353531,205.76778106484562 34.81348972256506,32.168429116463926,231.64441422838718 34.81355804723284,32.168570098543775,205.36428743321449 34.81348972256506,32.168429116463926,231.64441422838718 34.81366390202935,32.168542549634736,211.64488867856562 34.813552886430465,32.16856350428912,204.5044687325135 34.81335605032259,32.16815159163325,73.05872124992311 34.81348307778326,32.16768868384051,154.6748932208866 34.81348307778326,32.16851804174904,212.51998500246555 34.81348307778326,32.16864604365885,221.44792657531798 34.8135616222848,32.16869719548426,212.42936398182064 34.8135616222848,32.16869719548426,212.42936398182064 34.81393273159879,32.16950281596263,70.39470054022968 34.81391227827174,32.169785451927986,20.56645419448614 34.81391227827174,32.169785451927986,20.56645419448614 34.81391227827174,32.169785451927986,20.56645419448614 34.813835542873576,32.16769160075669,142.27834762632847 34.813659219892614,32.16769203888337,128.64671779144555 34.81364722484929,32.16756896244045,163.90132255852222 34.81364722484929,32.168687722842066,241.93163622822613 34.81364722484929,32.168687722842066,241.93163622822613 34.81364722484929,32.168687722842066,241.93163622822613 34.81364225295038,32.16885483881702,212.467535790056 34.813692070146764,32.16980366181702,45.18740744329989 34.813692070146764,32.16980366181702,45.18740744329989 34.813692070146764,32.16980366181702,45.18740744329989 34.813113051688006,32.16899945761664,181.550188543275 34.81351374662367,32.168742898208464,226.78365976177156 34.81351374662367,32.168742898208464,226.78365976177156 34.813692858236685,32.16868649545148,236.72801915276796 34.813734297427544,32.16898307447213,260.6251903017983 34.81413493468107,32.1692439859612,214.6246002279222 34.814297332384484,32.16913367665637,171.05670986138284 34.814168590020046,32.16922288479001,155.3288916638121 34.8140248342723,32.169580410534316,123.80400814954191 34.81370195827651,32.16973823796299,64.47149779740721 34.81483934384651,32.169862090263294,-139.57387595903128</coordinates>
            </LineString>
        </Placemark>
    </Document>
</kml>
